Polling Booth Name,Polling Booth Address,HearingAid,Braille,Interpreter Services,latitude,longitude
Shri Mammabai High School,"Shri Mammabai High School, Gr.floor,Hall A,Dr.B.A.Road, Mumbai 12-",No,No,No,18.987348,72.83594769999999
"Shishu Vihar School, Shri Velji Lakhamshi Nappu High School Compound,","Shri Velji Lakhamshi Nappu High School Compound, Gr.floor,R.No.1, Dr.B.A.Marg,Mumbai 12",Yes,Yes,No,18.9774673,72.8345417
"Byculla East Municipal School,","Ground Floor, Room No.41, E.S.Patanwala Marg, Mumbai 27",No,No,No,18.9806016,72.83542229999999
"Rambhau Bhogale Marg, Mun.Marathi Primary School,","Gr.floor, R.No.1, Rambhau Bhogale Marg, Mumbai 33",No,Yes,Yes,18.9765002,72.8407848
"Mohammed Umer Rajab Road, Mun. Madhyamik School,","Gr.floor, R.No.1, Mohammed Umer Rajab Road,Madanpura,Mumbai 8",No,No,Yes,18.9484199,72.8344749
"Saint Ignetitious High School,","Gr.floor, R.No.4, 243 Sane Guruji Marg,Mumbai 11",Yes,No,No,18.9801203,72.8258671
"Maharashtra Kamgar Kalyan Kendra,","Rambhau Bhogale Marg, Opposite Mun.School, Ghodapdev, Mumbai 33",No,Yes,No,18.9838237,72.8409962
"Byculla East, Municipal School,","Gr.Floor, R.No.1, E.S.Patanwala Marg, Mumbai 27",No,No,Yes,18.9804556,72.8390981
"Loksahir Annabhau Sathe Natyagruha,","Mandap- A , E.S Patnwala Marg, Mumbai-400027",No,Yes,Yes,18.9803548,72.8368176
"Byculla West Primary Marathi School ,","Ground Floor, Hall - A , N.M. Joshi Marg, Mumbai 11",No,No,No,18.9888731,72.8317907
"Kasturba Servants Quarters,","Kasturba Servants Quarter, Mandap -A, Sane Guruji Marg, Near Saint Ignetious Church, Mumbai 11",Yes,No,No,18.9840859,72.8297772
"Kinjal Tower,","Basement BMC parking  A , Pais Street, Mumbai-11",No,Yes,No,18.979272,72.83101839999999
"Sadhvi Savitribai Phule, U. P.Municipal Marathi School,","Gr. Floor Hall D, N.M.Joshi Marg,Meherpada compound,Mumbai 27",Yes,Yes,No,18.9789354,72.83153850000001
"B.P.T. E.Shed, A Mesant Shed","Near Reay Road Station, B.P.T. E.Shed, A Mesant Shed, Signal Hill View Mumbai.",Yes,No,No,19.0759837,72.8776559
"B.P.T. E.Shed, B Mesant Shed","Near Reay Road Station, B.P.T. E.Shed, B Mesant Shed, Signal Hill View Mumbai.",No,Yes,No,19.0759837,72.8776559
"B.P.T. E.Shed, C Mesant Shed,","Near Reay Road Station,B.P.T. E.Shed, C Mesant Shed, Signal Hill View Mumbai.",Yes,No,No,19.0759837,72.8776559
",B.P.T. E.Shed, G Mesant Shed","Near Reay Road Station,B.P.T. E.Shed, G Mesant Shed, Signal Hill View Mumbai.",No,No,No,19.0759837,72.8776559
"B.P.T. E.Shed, D Mesant Shed","Near Reay Road Station,B.P.T. E.Shed, D Mesant Shed, Signal Hill View Mumbai.",No,Yes,Yes,19.0759837,72.8776559
"B.P.T. E.Shed, E Mesant Shed","Near Reay Road Station,B.P.T. E.Shed, E Mesant Shed, Gr.Floor, Signal Hill View Mumbai.",No,Yes,No,19.0759837,72.8776559
"B.P.T. E.Shed, F Mesant Shed","Near Reay Road Station,B.P.T. E.Shed, F Mesant Shed, Gr.Floor, Signal Hill View Mumbai.",No,No,No,19.0759837,72.8776559
"Sushanti Church, K.G,.  Primary School","Hall A, Gr. Floor, Ganesh Hari Parundekar Marg, Mumbai 11",Yes,Yes,Yes,18.9765448,72.8288521
"Maulana Azad High School,","Gr.floor, Hall ,Mominpura, Mumbai",No,No,Yes,19.0759837,72.8776559
"Meghraj Shethi Marg, Municipal Urdu School,","Gr floor, R.No.1, Megraj Shethi Marg,Mumbai 8",Yes,Yes,Yes,18.9736715,72.8287246
"Gloriya Convent High School,","Gr.floor, Sant Sawata Marg,Byculla Mumbai 27",No,No,No,18.9762246,72.8411355
Agripada peoples welfare gym.,"Near BIT Chawl No. 22, Madhavrao Gangan Marg, Agripada - 11",Yes,No,No,18.9758047,72.8264609
"Antonio DSouza High School,","Gr,. Floor, R.No.8, Sant Sawata Marg,Mumbai 27",Yes,No,No,18.9756677,72.8391922
Y.M.C.A.,"Gr.Floor Hall, Farooq S.Umarbhai Path,Mumbai 11",Yes,No,Yes,19.0759837,72.8776559
"Agripada Marathi Municipal School,","Gr.Floor, R.No.7, Farookh S.UmarbhaiPath,Mumbai 11",No,No,Yes,19.0759837,72.8776559
Ground near Agripada Marathi Municipal School,"Agripada Marathi  Municipal School, Ground Floor, Room No 2, Farookh S.Umarbhai Path, Mumbai 11",Yes,Yes,Yes,19.1679342,72.843332
Agripada Marathi Municipal School,"Agripada Marathi  Municipal School, Ground Floor, Room No 3, Farookh S.Umarbhai Path, Mumbai 11",Yes,No,No,19.1679342,72.843332
Agripada Marathi  Municipal School,"Agripada Marathi  Municipal School, Ground Floor, Room No 4, Farookh S.Umarbhai Path, Mumbai 11",Yes,No,No,19.1679342,72.843332
"Regina Pacis High School,","Ground floor Hall-A, Sheth Motishah Lane.Love Lane,Mumbai 400 010",Yes,Yes,No,18.9721202,72.8374589
"Regina Pacis High School Compund,","Regina Pacis High School, Hall D, Sheth Motishaha lane, Love lane, Mumbai 10",Yes,Yes,No,18.975838,72.8349265
"Mohammed Umer Rajab Road, Municipal School,","Gr.floor, R.No.2, Mohammed Umer Rajab Road, Mumbai 8",Yes,Yes,No,19.0759837,72.8776559
Christ Church High School,"Christ Church High School, Gr.floor, room no. 4, Mirza Galib Marg, Byculla,Mumbai-8",No,No,Yes,19.038414,72.94945919999999
"Christ Church High School,","Christ Church High School, Gr.floor, room no. 8, Mirza Galib Marg, Byculla,Mumbai-8",Yes,Yes,No,19.0354504,72.9502017
"Seth Motisha Lane U. Primary Municipal Marathi School,","Ground Floor,  Nursery Class No. 1, Bramhanwadi, Mazgaon, Mumbai 10",Yes,No,No,18.9595901,72.8459159
Saint Isabel High School,"Gr,floor, R.No.11, Dr.Mhaskerance Road,Mumbai-10",No,Yes,Yes,19.0759837,72.8776559
"Rozary High School,","Ground floor,Hall A, Barister Nath Pai Marg,Mumbai 10",Yes,Yes,No,18.9765155,72.8440989
"Nawab Tank Up primary and Secondary Muni. School,","Nawab Tank Up primary and Secondary Tamil Muni. School, Hall  A , Saifee Blg. No. 1, op. Mazgon post office, mazgon, Mumbai- 400010",No,No,No,18.9595901,72.8459159
"E Ward B.M.C.Office,","Open space of Ground floor, Mumbai -8",Yes,Yes,No,19.0759837,72.8776559
Saint isabel High School,"Gr,floor, R.No.1, Dr.Mhaskerance Road,Mumbai-10",Yes,Yes,Yes,19.0759837,72.8776559
"Saint Isabel High School ,","Gr,floor, R.No.3, Dr.Mhaskerance Road,Mumbai-10",Yes,Yes,Yes,19.0759837,72.8776559
"Saint Isabel High School,","Ground Floor, Room No.4 Dr.Mhaskerance Road,Mumbai-10",Yes,No,No,19.0759837,72.8776559
Maharashtra Kamgar Kalyan Kendra-,"Maharashtra Kamgar Kalyan Kendra-Hall A, Tarabaug Compound, Seth Motishah Lane, Mumbai-10",No,Yes,Yes,18.9723449,72.8364825
"Mohammed Umer Rajab Road,","Mohammed Umer Rajab Road, Municipal  School,Gr.floor, R.No.12, Mohammed Umer Rajab Road, madanpura, Mumbai  8",No,No,Yes,18.9703745,72.8271764
Mohammed Umer Rajab Road,"Mohammed Umer Rajab Road, Municipal  School,Gr.floor, R.No.13, Mohammed Umer Rajab Road, Madanpura, Mumbai  8",Yes,No,Yes,18.9703745,72.8271764
Seth Motishah Lane U Primary Municipal Marathi School Ground,"Mandap  C , Bramhanwadi, Mazgaon, Mumbai 10",No,Yes,No,18.9595901,72.8459159
"Anjuman Khairul Islam Urdu High School,","Ground floor Hall A, 2nd Ghelabai Street, Mumbai 08",No,No,No,18.971785,72.8264524
"Community Hall A , M building , Reserve Bank Staff Quarters","Community Hall A , M building , Reserve Bank Staff Quarters, Maratha Mandir Road, Mumbai 8",No,No,No,19.0759837,72.8776559
"Community Hall B , M building , Reserve Bank Staff Quarters","Community Hall B , M building , Reserve Bank Staff Quarters, Maratha Mandir Road, Mumbai 8",No,Yes,No,19.0759837,72.8776559
"Mohammed Umer Rajab Road, Mun. Madhyamik School,8","Gr.floor, R.No.11, Mohammed Umer Rajab Road,Madanpura,Mumbai",No,No,No,18.9484199,72.8344749
"Mohammed Umer Rajab Road, Mun. Madhyamik School","Ground Floor - Hall -  C , Mohammed Umer Rajab Road,Madanpura,Mumbai 8",Yes,No,Yes,18.9484199,72.8344749
"Sushanti Church, K.G,.  Primary School,","Ground Floor, Mandap -  F  Ganesh Hari Parundekar Marg, Mumbai 11",No,Yes,Yes,18.9765448,72.8288521
"Saint Agnes High School, Convent of Jesus   Mery","Gr.Floor, R.No.1,Mirza Galib Marg,Mumbai 8",No,No,Yes,19.0377699,72.949955
"B.P.T. E.Shed, I Mesant Shed","Near Reay Road Station, B.P.T. E.Shed, I Mesant Shed, Signal Hill View Mumbai.",Yes,Yes,No,19.0759837,72.8776559
"B.P.T. E.Shed, J Mesant Shed","Near Reay Road Station, B.P.T. E.Shed, J Mesant Shed, Signal Hill View Mumbai.",No,No,Yes,19.0759837,72.8776559
"B.P.T. E.Shed, K Mesant Shed","Near Reay Road Station, B.P.T. E.Shed, K Mesant Shed, Signal Hill View Mumbai.",Yes,No,Yes,19.0759837,72.8776559
"B.P.T. E.Shed, L Mesant Shed","Near Reay Road Station, B.P.T. E.Shed, L Mesant Shed, Signal Hill View Mumbai.",Yes,No,Yes,19.0759837,72.8776559
"B.P.T. E.Shed, H Mesant Shed","Near Reay Road Station, B.P.T. E.Shed, H Mesant Shed, Signal Hill View Mumbai.",No,No,No,19.0759837,72.8776559
"Saint Mary High School,(SSC)","Gr.floor, R.No.23, Sardar Balwantsingh Dhodi Marg, Mazgaon,Mumbai 10",No,Yes,Yes,18.9576699,72.8333179
"Saint Mary High School, (SSC)","Gr.floor, R.No.3, Sardar Balwantsingh Dhodi Marg, Mazgaon,Mumbai 10",Yes,Yes,No,18.9573568,72.842336
"Bruhani College of Commerce   Arts,and management studies,","Jabir Mehta Commerce Bldg.,Gr. Floor , Hall  A  Nesbit Road, Mumbai 10",No,Yes,No,18.9688589,72.8372181
"B.I.T. chawl No. 2 and 3,","Ground between B.I.T. chawl No. 2 and 3, Mandap  A , Sheth Motisha lane, love lane, Mumbai - 10",No,No,Yes,18.967838,72.8369843
"Saint Mary High School, (ICSE)","Gr.floor, R.No.1, Sardar Balwant singh Dhodi Marg,Mazgaon, Mumbai 10",No,No,No,18.9595901,72.8459159
"Saint Mary High School,(ICSE)","Gr.floor, R.No.4, Sardar Balwant singh Dhodi Marg,Mazgaon, Mumbai 10",Yes,Yes,No,18.9595901,72.8459159
"Anjuman Ismal Giris HighSchool,","Anjuman Islam Giris HighSchool, R.No.4, Jahangir Bomen Behram Marg,Mumbai 8",No,No,Yes,18.9686239,72.8220468
"Tadwadi Municipal School Samuh,","Gr.Floor Hall A, Tadwadi Mazgaon, Mumbai 10",Yes,Yes,Yes,18.9674417,72.83788539999999
Saint Peter School,"Gr.Floor,Nursery.R.No.1,Shivdas Chapsi Road, Mazgaon,Mumbai-10.",Yes,No,Yes,18.9595901,72.8459159
"Hume High School and Jr.Collage,","Gr.floor, R. no.14,Sir J.J.Marg,Mumbai 8",Yes,Yes,Yes,18.9728052,72.8317964
"Sir Elly Kadoori School   Jr.Collage ,","Gr.floor, R.No.1,Shivdas Chapsi Marg, Mazgaon,Mumbai-10",Yes,Yes,Yes,18.9698173,72.8409563
"Sir Elly Kadoori School   Jr.Collage,","Gr.floor, R.No.2,Shivdas Chapsi Marg,Mazgaon,Mumbai-10",No,Yes,Yes,18.964262,72.838005
Eknath (Bhai) Maruti Bandal Manoranjan Maidan,"Mandap  A  Chimanji Rajoji Marg, B S Satam Chowk Dockyard Mumbai -10",Yes,No,Yes,19.0759837,72.8776559
"Shatabdi Sohala Municipal School,","Shatabdi Sohala Municipal School, Ground floor, Nursary Room, J.J.Hospital Compound Near Gate No 14, J J Road, Mumbai 08",No,Yes,Yes,18.9728052,72.8317964
Nathuram Poddar Baug,"Nathuram Poddar Baug, Graund flooer Hall A Dr. Babasaheb Jaykar Marg, Mumbai 400002",Yes,Yes,No,18.952036,72.8231644
"Gorakshak Shree Krishna CHS, Darshan Heights,","Gorakshak Shree Krishna CHS, Darshan Heights, B wing, Zawabawadi, Thakurdwar, Ground Floor, Patrashed A Zabwawadi Thakurdwar, Mumbai - 400 002",Yes,Yes,Yes,18.9517854,72.8247299
Sitaram Poddar Balika Vidyalaya,"Sitaram Poddar Balika Vidyalaya, Gound Floor, Room No. 4 Sitaram Poddar Marg Mumbai 400002",No,No,Yes,18.9512312,72.8257443
"Barrato High school,","Barrato High school, Ground Floor, Room No. 5 Dr. Vegas Street,Mumbai - 400 002",Yes,Yes,Yes,18.9485605,72.8258795
Maha Pragya Public School Dadi Sheth Agyari Lane Kalbadevi,"Maha Pragya Public School Dadi Sheth Agyari Lane Kalbadevi Mumbai Ground Floor, Hall - A-4 Dadi Sheth Agyari Lane Mumbai 400002",No,No,No,18.9503992,72.8272868
"Gorakshak Shree Krishna CHS, Darshan Heights, B wing, Zawabawad","Gorakshak Shree Krishna CHS, Darshan Heights, B wing, Zawabawadi, Thakurdwar, Ground Floor, Patrashed C Zabwawadi Thakurdwar, Mumbai - 400 002",Yes,Yes,No,18.9517854,72.8247299
St. Sebestian High School,St. Sebestian High School Ground Floor K. G.B St. Francis Xavier Road Mumbai 400002,Yes,Yes,No,18.9491092,72.8229523
Prabhu Seminary High School,Prabhu SeminariHigh School Ground Floor Hall A 1 Bhai Jeevanji Lane Mumbai 400002,No,Yes,No,18.9507441,72.8231182
"Student Literary Scientific Society School,","Student Literary Scientific Society School, Ground Floor, Room No. A Navroji Shet Marg,Mumbai-400002",Yes,No,No,19.0759837,72.8776559
"St. Sebestian Goan High School,",St. Sebestian Goan High School St. Francis Xavier Road Mumbai 400002 Ground Floor Nursery Room,Yes,Yes,Yes,18.9491092,72.8229523
"Dakhibai Singhaniya Dharmashala Trust, Singhaniya Wadi (Ganesh Baug)","Dakhibai Singhaniya Dharmashala Trust, Singhaniya Wadi (Ganesh Baug) Ground Floor, Hall A-1 Dadi Sheth Agyari Lane Mumbai-400002",Yes,No,Yes,18.9573003,72.8081258
"Marwadi Commercial Highschool, Gajdhar Street","Marwadi Commercial Highschool, Gajdhar Street, Ground Floor, Room No.1 Dadi Sheth Agyari Lane Mumbai-400002",Yes,No,No,18.9510396,72.8290392
Marwadi Commercial Highschool,"Marwadi Commercial Highschool, Gajdhar Street, Dadi Sheth Agyari Lane, Mumbai 400002 Ground Floor, Computer Room",No,No,Yes,18.9486076,72.824305
"Sheth Kahandas Narandas Chrities Trust,  Zaver Baug","Sheth Kahandas Narandas Chrities Trust, Zaver Baug, Ground Floor, Hall A Kalbadevi Road, Mumbai - 400 002",Yes,No,Yes,18.9487491,72.8288979
"Baig Mohammad Park,","Baig Mohammad Park, Narayan Dhuru Street, Mumbai - 400 003 Mandap-1",No,Yes,No,18.953903,72.83285409999999
"Old Halai Bhatia Mahajan Wadi,","Old Halai Bhatia Mahajan Wadi, Ground Floor, Hall A-1 Kalbadevi Road, Mumbai - 400 002",No,No,Yes,18.9448222,72.8291497
Chandanwadi Municipal School,"Chandanwadi Municipal School, Ground Floor, Room No. 1 chandanwadi, Mumbai - 400 002",No,Yes,No,18.94662,72.826554
Shree Jain Mahila Samaj Hall,"Shree Jain Mahila Samaj Hall, H Cross Road, Mumbai-400002, Ground Floor, Hall-A",Yes,No,Yes,18.9434568,72.82381939999999
"Our Lady of Dolours High School,","Our Lady of Dolours High School, Ground Floor, Std. 10th Dr. Cavasjee Hormasji Street, Mumbai - 400 002",Yes,No,No,18.943687,72.8256334
Bai Manekbai Nowrosji Gamudia Parsi Girls School,"Bai Manekbai Nowrosji Gamudia Parsi Girls School, Indian Music Class Room, Ground Floor Shamaldas Gandhi Marg, Mumbai - 400 002",No,No,No,18.9460836,72.8287127
"Lord Harris Municipal School, Uppar Primary School,","Lord Harris Municipal School, Uppar Primary School, L.T. Marg (Dhobi Talao) Mumbai-400002, Ground Floor Room No. 3 R. S. Sapre Marg, Mumbai - 400 002",No,Yes,No,18.9455236,72.83058249999999
St. Xavier s High School,"St. Xavier s High School, 289, L.T. Marg. Fort, Mumbai-400001, Ground Floor K.G.-A",No,Yes,Yes,18.9442049,72.8304121
"Old Halai Bhatia Mahajanwadi, Kalbadevi Road","Old Halai Bhatia Mahajanwadi, Kalbadevi Road, Mumbai - 400002, Ground Floor, Hall A-7",No,Yes,No,18.9482344,72.8285635
Mahatma Phule Mandai,"Mahatma Phule Mandai, Near Crofford Market, Lokmanya Tilak Marg, Mumbai-400001, Partition",No,Yes,Yes,18.9476146,72.8342861
Beaig Mohammad High school,"Mandap -1, Open space Gr flr.  Narayan Dhuru Street,  Mumbai - 400 003",Yes,Yes,No,18.9526518,72.8329648
"Cummoo Jafar Suleman Girls School,","Cummoo Jafar Suleman Girls School, Ground Floor Kambekar Street, Mumbai 400 003",Yes,Yes,No,18.9537301,72.83402520000001
"Murli Deora Manoranjan Maidan, Dhobi Street,","Murli Deora Manoranjan Maidan, Dhobi Street, Mandap-1 Dhobi Street, Mumbai 400 003",No,Yes,No,18.9529904,72.8348646
Kacchi Memon Jamat Khana Kambekar Street,"Kacchi Memon Jamat Khana, A-Kambekar Street, Mumbai - 400 003, Ground Floor, Hall B-1",Yes,No,No,18.954591,72.834156
"Mumbai Public School Kambekar Street,","Mumbai Public School, 171/175, Kambekar Street, Ground Floor, Hall-A Kambekar Street, Mumbai - 400 003",No,No,Yes,18.9540377,72.8342705
"Halai Memon Khandwani Jamat, Kambekar Street,","Halai Memon Khandwani Jamat, 143/147, Kambekar Street, Mumbai - 400 003 Hall A",Yes,Yes,No,18.9543558,72.8341389
"Mumbai Public School, 171 175, Kambekar StreetKambekar Street,","Mumbai Public School, 171/175, Kambekar Street, Ground Floor, Hall-D Kambekar Street, Mumbai - 400 003",Yes,No,No,18.9540377,72.8342705
"Kacchi Memon Jamat Khana, Kambekar Street","Kacchi Memon Jamat Khana, Ground Floor, Hall A1 Kambekar Street, Mumbai - 400 003",No,No,No,18.954591,72.834156
Shramik Bhavan. BPT Karnak Bandar Welfare Center,"Shramik Bhavan. BPT Karnak Bandar Welfare Center, Ground Floor, Patra Shed-A,  P Dmello Road, Mumbai - 400 001",Yes,Yes,Yes,19.0759837,72.8776559
"Mumbai Public School, Janabai And Madhavrao Rokade Upper Primary Marathi Municipal School","Mumbai Public School, Janabai And Madhavrao Rokade Upper Primary Marathi Municipal School Swatantrya Senani Chintamani Devji Koli Road, Masjid, Mumbai-400003, Ground Floor, Room No.1 Janjikar Street, Mumbai - 400 003",Yes,No,No,18.949978,72.8337225
"Labour Welfare Centre, Sabusiddique Garden","Labour Welfare Centre, Sabusiddique Garden, Sabusiddhik Road, mumbai - 400 001, Ground Floor, Gym Room",Yes,No,No,19.0148211,72.8225015
Sir J J institute of arts campus,"Sir J J institute of Arts Campus, Dr. Dadabhai Nauroji marg , J J flyver csmt mumbai400001, Ground floor, Lecture room and gallery miniature",Yes,No,No,18.9430816,72.8343837
"Govt. Dental College, St. Georges Hostel Canteen","Govt. Dental College, St. Georges Hostel Canteen, Ground Floor, Hall A P. D mello Road, Mumbai - 400 001",Yes,Yes,Yes,18.9529317,72.8415185
"Govt. Dental College, St. Georges Hostel,","Govt. Dental College, St. Georges Hostel, Canteen, Ground Floor, Hall B P. D mello Road, Mumbai - 400 001",No,No,No,18.9529317,72.8415185
"Lord Harris Municipal School,","Lord Harris Municipal School, Uppar Primary School, L.T. Marg (Dhobi Talao) Mumbai-400002, Ground Floor Room No. 4",Yes,No,No,18.9450118,72.8309692
"Elphistone Technical High School,","Elphistone Technical High School, Ground Floor, Room No. 9",No,Yes,Yes,,
"Shri Mumbai and Mangrol Jain Sabha, Shri S.K.I. Jain Highschool","Shri Mumbai and Mangrol Jain Sabha, Shri S.K.I. Jain Highschool, Maharshi Karve Road, Ground Floor, K.G.",No,Yes,Yes,18.9420962,72.8264176
"Hindi Vidya Bhavan Hall,","Hindi Vidya Bhavan Hall, Ground Floor, Hall A, North Side Jain Patan Mandal Marg, Mumbai - 400 020",No,Yes,Yes,18.9418439,72.8257339
"Bai kabibai English Highschool,","Bai kabibai English Highschool, Ground Floor, Block No. A Bora Bazzar Street, Mumbai - 400 001",No,Yes,No,18.9377483,72.8351863
Sir J.J. Parsi Benevolent Institute,"Sir J.J. Parsi Benevolent Institute, 209 Dadabhai Nouroji Road, Mumbai-400001, Ground Floor, Class 1-B",Yes,Yes,Yes,18.9368682,72.83429679999999
"Navbhavan Building, Ramjibhai Kamani Marg","Navbhavan Building, Ramjibhai Kamani Marg, Mumbai-400001, Left Side 1st Room",No,No,Yes,18.9365456,72.8391317
Kanji Khetshi Charity Hall,"Kanji Khetshi Charity Hall, Ground Floor, Hall A Mint Road, Mumbai 400 001",Yes,Yes,Yes,18.9367645,72.8369524
"Mumbai Public School, Bora Bazar Street","Mumbai Public School, Bora Bazar Street, Municipal Uppar Primary Hindi School, Bora Bazar, Fort, Mumbai -400 001, Ground Floor, Jr. K.G. Room",No,Yes,Yes,18.998342,72.8536416
The Cathedral John Connon Highschool,"The Cathedral John Connon Highschool, Purushottamdas Thakurdas Marg, Mumbai-400001, Ground Floor Hall, near French Room",Yes,Yes,Yes,19.0759837,72.8776559
S.N.D.T. Womens University,"S.N.D.T. Womens University, Nathibai Thakersey Marg, Mumbai-400020, Patkar Hall, Ground Floor, Partition-A",No,No,No,18.9379295,72.8280927
"Town Hall, Central Library,","Town Hall, Central Library, Ground Floor, Hall A Partition Shahid Bhagatsingh Road, Mumbai - 400 023",No,No,Yes,18.9198657,72.8298371
"Sydneham College of Commerce And Economics,","Sydneham College of Commerce And Economics, Ground Floor, Room No. 1 B Road, Churchgate, Mumbai - 400 020",Yes,Yes,Yes,18.9351269,72.8259032
"Jaihind College,","Jaihind College, Ground Floor, Common Room Sitaram DeVra Marg, Churchgate, Mumbai - 400 020",No,No,No,18.9345107,72.82521050000001
"Mumbai Univercity,","Mumbai Univercity, Convocation Hall Karmavir Bhaurao Patil Marg, Mumbai - 400 001",No,No,Yes,18.929725,72.8300375
K. R. Cama Oriental Institute,"K. R. Cama Oriental Institute, Ground Floor, Hall East Side shahid Bhagat Singh road, Mumbai - 400 023",No,No,Yes,18.9271981,72.8337004
K. C. College,"K. C. College, Badminton Hall North Side Dinshaw Vacha Road, Mumbai - 400 020",Yes,Yes,Yes,18.9305578,72.8254524
"St. Annes Highschool,","St. Annes Highschool, Ground Floor, K. G. A Madam Cama Road, Mumbai 400 020",No,Yes,Yes,18.9252647,72.8314386
Young Womens Christian Association,"Young Womens Christian Association, Ground Floor, Hall A Madam Cama Road, Mumbai 400 020",Yes,Yes,No,18.9272741,72.8259805
Sachivalaya Gymkhana,"Sachivalaya Gymkhana, Ground Floor, Badminton Hall A ir Jagganath Bhosale Marg, Mumbai 400 032",Yes,No,No,19.0759837,72.8776559
Convent of Jesus And Merry High school,"Convent of Jesus And Merry High school, Ground Floor, West Side Class Convent Street, Mumbai - 400 005",Yes,Yes,No,18.9103689,72.8197581
The Scholar HighSchool,"The Scholar HighSchool, Room No.5, Ground Floor, West Side Henry Road, Mumbai - 400 039",No,No,No,18.9206091,72.8309676
Sir Cusrow Wadia pavilion,"Sir Cusrow Wadia pavilion , Cusrow Baug S.B.S Road, Mumbai 05 Hall-A",No,Yes,No,18.9198657,72.8298371
"Railway Employees Club,","Railway Employees Club, Badhwar Park, Ground floor Hall, West Side Nathalal Parekh Marg, Colaba, Mumbai - 400 005",No,No,Yes,18.9170965,72.8256993
"Mumbai Public School, Colaba Municipal Uppar Primary School,","Mumbai Public School, Colaba Municipal Uppar Primary School, N.A. Sawant Marg, near Fire Brigade, Colaba, Mumbai-400005, Ground Floor, Room No.4",Yes,Yes,No,18.9103689,72.8197581
"Mumbai Public School, Colaba Municipal Secondary School","Mumbai Public School, Colaba Municipal Secondary School, N.A. Sawant Marg, near Fire Brigade, Colaba, Mumbai-400005, Ground Floor, Room No.1",Yes,No,Yes,18.9149433,72.8265868
"MTNL Telephone Bhavan, Lala Nigam Road","MTNL Telephone Bhavan, Lala Nigam Road, Colaba market, Colaba Mumbai-400005 Ground Floor Hall",Yes,Yes,Yes,18.917111,72.8287769
"Mumbai Public School, Colaba Municipal Uppar Primary School","Mumbai Public School, Colaba Municipal Secondary School, N.A. Sawant Marg, near Fire Brigade, Colaba, Mumbai-400005, Ground Floor, Room No.7",No,Yes,No,18.9149433,72.8265868
G. D. Somani Memorial School,"G. D. Somani Memorial School, Ground Floor, Canteen Hall A-1 G. D. Somani Marg, Mumbai - 400 005",Yes,No,No,18.916335,72.81961199999999
Mumbai Port Authority Recreation Club Near Jackson House,"Mumbai Port Authority Recreation Club Near Jackson House, Dumaniya Road, Colaba, Mumbai-400005, Ground Floor, Conference Hall A-1",Yes,No,Yes,18.934458,72.8382511
Dunnes Institute Admiral House,"Dunnes Institute Admiral House, Ground Floor, Std. 4-A Nathalal Parekh Mnarg, Colaba, Mumbai - 400 005",Yes,Yes,Yes,18.9067031,72.8147123
World Trade Center,"World Trade Center, Ground Floor Mandap-1 Captain Prakash Pethe Marg, Mumbai - 400 005",Yes,No,Yes,18.9194402,72.82462919999999
P.M. Shri Kendriya Vidyalay No. 1,"P.M. Shri Kendriya Vidyalay No. 1, Dr. Homi Bhaba Road, Navy Nagar, Colaba, Mumbai-400005, Ground Floor, Room-1",No,Yes,No,18.9076984,72.8105298
Army Public School,"Army Public School, Nanabhai Moose marg, R. C. Church, Colaba, Mumbai-400005, Ground Floor, Room 1",No,No,Yes,18.8998271,72.81379319999999
Tata Institute of Fundamental Research Housing Complex,"Tata Institute of Fundamental Research Housing Complex, Bhaskara Building Corridor, Dr, Homi Bhabha Road, Navy Nagar, Colaba, Mumbai-400005, Partiton-1",No,Yes,No,18.9081243,72.8075945
St. Joseph Highschool,"St. Joseph Highschool, K. G. Nursery Class, Ground Floor, Room No. 1 Nanabhai Moose Marg, R.C. Church, Colaba, Mumbai 400 005",No,No,No,18.8997076,72.8130108
Chhatrapati Shivaji Vidyalaya,"Secondary Section, P.M.G.P.Colony bldg no-31,Ground Floor Room No.1 Dharavi road North, Mumbai 17",Yes,Yes,No,19.045573,72.85662430000001
Aashadip Prastistan sanchalit,"nursy Hall,Near Ashok Milk Compound Hall, Opp. Sahil hotel, 90 feet road dharavi mumbai-400017",No,No,No,19.0473993,72.8607711
"Mumbai Public School, dharavi, Kala Killa School sankul Municipal Prathmik School","Partition -1, Ground Floor Dharavi Road Mumbai 400017",No,Yes,No,19.0446686,72.8522163
Dharavi BEST Depot,"Partition No.1, Shed Dharavi Road, Dharavi Mumbai 17",Yes,Yes,Yes,19.0454769,72.8540093
Bharatratna Rajiv Grandhi District Sports Complex,"Partition no 4 Ground floor, kabaddi hall dist sport complex mumbai city dharavi sion link road, Dharavi Mumbai - 400017",Yes,No,Yes,19.0409083,72.8589165
Janaseva Shikshan Santhas Royal City English High School,"Room No. 1, Opp. ONGC., Dambar Compound, Dharavi, Mumbai 17",No,Yes,No,19.0486206,72.85762059999999
"Aashadip Prastistan sanchalit, Aakashdip Vyayam Shala,","Damber Compound Mukund Nagar,Opp O.N.G.C. Dharavi Bandra Link road, Mumbai 400017",No,Yes,No,19.0746954,72.8342306
"Siv Shikshan Trust Prathmik School, (D.S. High school sanchalit )","Glr Floor Room No-1, Laxmi Baug, Near Railway station,  sion west Mumbai-400017",Yes,Yes,Yes,19.0443606,72.8609457
"Municipal Dispensary Heritage,","Shed B.M.C. Opp Near Mhada Builiding, Behind Dharavi Police Station, Dharavi Mumbai 400017",Yes,No,No,19.043054,72.85738119999999
"Partition - 1, Shed B.M.C.Hall","Partition - 1, Shed B.M.C.Hall , Opp Municipal Dispensary Heritage, Near  Mhada Builiding, Behind Dharavi Police Station, Dharavi Mumbai 400017",No,Yes,Yes,19.043054,72.85738119999999
"Partition - 2, Shed B.M.C.Hall","Partition - 2, Shed B.M.C.Hall , Opp Municipal Dispensary Heritage, Near  Mhada Builiding, Behind Dharavi Police Station, Dharavi Mumbai 400017",Yes,Yes,Yes,19.043054,72.85738119999999
"Room No-1,  Maulana Azad Primary English School,","Room No-1,  Maulana Azad Primary English School,  ,Opp. Block No 5, Behind Dharavi Polise station, Transit Camp, Dharavi Mumbai -400017",Yes,Yes,Yes,19.043054,72.85738119999999
N I E S English primary school,"Room no 1, N I E S English primary school, Transit camp, Municipal compound , Dharavi Mumbai 17",No,No,Yes,19.0428812,72.8595062
"Mumbai Public School Dharavi Transit Camp School sankul ( Municipal School),","shramik vidyapith Urdu School no 2, Room No.10 (left side chawl of school main gat) Dharavi road North, Mumbai - 400017",No,Yes,No,19.051833,72.8610851
"Mumbai Public School Dharavi Transit Camp School sankul  Municipal School, .","Mashal Sanstha mariya English high school begam bilkis latif jr college of commerce occational room No 26, Dharavi Road North, Mumbai  400017",Yes,Yes,No,19.0439928,72.8514007
Bharatmata health club,"Bharatmata health club , Vyayam Shala , M.G.Road ,Vijay nagar Block No 13, Transist Camp Dharavi Mumbai 400017",Yes,Yes,No,19.0415621,72.8591721
"Dr  Babasaheb Ambedkar Samaj Mandir Hall , Vijay nagar","Partition 1, Dr  Babasaheb Ambedkar Samaj Mandir Hall , M.G.Road, Vijay nagar Block No 13, Transist Camp Dharavi Mumbai 400017",No,No,Yes,19.0415621,72.8591721
Rajashri Shahu High School(Primary To Secondary) Rajarshi Shahu Arts Science   Commerce Jr College,room no 1 Ashok Mill Compound Sion Bandra Link Road Rohidas Marg Dharavi Mumbai-400017,No,No,Yes,19.0475755,72.8607605
Mumbai public school Kanadi chwal,"Mumbai public school Kanadi chwal, school bldg, Ground floor, room no 1, dharavi rd north, Mumbai 17",Yes,Yes,No,19.045573,72.85662430000001
Lokseva Mandal,"Room No-1, Behind Shani Mandir, Opp Vitthal Mandir, Kala Killa, Dharavi Mumbai 400017",Yes,Yes,No,19.0495993,72.8596712
Morning Star English School,"Room No- 1, Ashok Mil Compound, Shop No- 6 ( Near Dharavi Pumping Station) Adamji Peerbhai Chawl, Opp. Sion Bandra Link Road Mumbai 400017",Yes,Yes,No,19.0475707,72.8609714
DnyanJyoti Savitribai Fule High school,"Room No-1, PRE-Primary / Primary English Medium Behind Hanuman Mandir, Opp Piwala Bunglow, Sion Bandra Link Road, Dharavi Mumbai 400017",Yes,No,Yes,19.0477486,72.85557639999999
"Reality Gives, Unique Business Centre ( Aganwadi ),","Opp New Ganesh Vidya Mandir School, Behind Laxmi Temple, Dharavi Mumbai 400017",No,Yes,Yes,19.0431456,72.8546662
Shri Gajanan Co Op Hos  Society Ltd  Society Office,Shri Gajanan Co Op Hos  Society Ltd  Society Office  Shastri Nagar Dharavi Mumbai 400017,Yes,No,No,19.0461029,72.8561273
Green Place Co Op Hos Society Shed,Green Place Co Op Hos Society Shed  Shastri Nagar Dharavi Mumbai 400017,No,Yes,No,19.0454108,72.8558475
Good Shepherd English School,"Glr.Floor, Room No-1, Near Old Post Office, Dharavi Main Rod, Dharavi Mumbai 400017",No,No,Yes,19.0446686,72.8522163
Shankar Kawade Municipal School,"Ground Floor Room No- 1, Dharavi Cross Road, Dharavi Mumbai 400017",No,No,Yes,19.0419651,72.8524595
Shastri Nagar Mahanagar palika Primary Marathi School,"Ground Floor Room No -1, Dharavi Road South Mumbai -400017",No,Yes,No,19.0468973,72.85462509999999
"Sant Kakkaya Marg Vikas Associations Shri Ganesh Vidya Mandir (New),","Secondary Section, Gr. Floor Room No.1 Dharavi Cross Road, East, Mumbai 17",No,Yes,Yes,19.0419651,72.8524595
Sent Anthony High School,Plot no 980 Romm no 1 Dharavi Main Road NearOld Post Office Dharavi Cross Road East Mumbai 17,No,Yes,No,19.0468973,72.85462509999999
"Sant Kakkaya Marg ,Muncipal School (Mumbai Public School","Tadwadi lane Secondary Section, Gr. Floor Room No.1 Dharavi East, Mumbai 17",No,Yes,No,19.046777,72.85471
"New Life English School Nursy Junior   K.G,","Glr Floor Room No-1, Near Kamraj School, 90 Feet Road, Dharavi Mumbai 400017",Yes,Yes,No,19.0419306,72.8555173
Bombay South Indain Adi-Dravid Mahajan Sangh (B.S.I.A.S) English School,room no. 01 Agas Wadi Dharavi- Cross Road Mumbai-400017,Yes,No,Yes,19.0380334,72.8537589
Sri Sri Ravishankar Vidyamandir,"Ground floor room no. 01 ( N. D. G compound ) kalyanwadi - 5 Thevar Nagar, Behind ganesh Temple Dharavi-Mumbai 400017",Yes,Yes,Yes,19.0380334,72.8537589
"Saraswathi Vidya Bhavan,U.M. Thevar High School","room no. 01 Kalyan wadi -5, Near Ganesh Mandir Dharavi Mumbai 400017",Yes,Yes,Yes,19.0399924,72.8513727
"Vaibhav Co. op.society Parking Passage No 3,","Vaibhav Co. op.society Parking Passage No 3, Opp. Abhudaya Bank Dharavi Cross road, Dharavi Mumbai-400017",Yes,Yes,No,19.0415205,72.8507183
Vaibhav Co. op.society Parking Passage No 4,"Vaibhav Co. op.society Parking Passage No 4, Opp. Abhudaya Bank Dharavi Cross road, Dharavi Mumbai-400017",Yes,No,Yes,19.0415205,72.8507183
Vaibhav Co. op.society Parking,"Passage No 1, Opp. Abhudaya Bank Dharavi Cross road, Dharavi Mumbai-400017",No,Yes,No,19.0415205,72.8507183
Unison Foundation Welfare Centar,"Western india Veer Abdul Hamid Park W.I.T. Ground, Near Abhudaya Bank, Dharavi Mumbai 400017",No,No,Yes,19.0430282,72.8505983
Rasthmata Savitribai Fule Vihar,"partition no-1 , Anna Nagar, Opp Dr. Babasaheb Ambedkar School, Sant kakkya marg, Dharavi Mumbai 400017",No,No,Yes,19.0380334,72.8537589
"Bharat Ratna Dr. Baba Saheb Ambedkar Vidyalay,","Sant Kakayya Marg, Dharavi South Ground Floor Room No. 1, Mumbai 17",No,No,Yes,19.0438522,72.8545441
"Shri Ganesh Vidya Mandir Old Primary Section School,","Ground floor Room No -1, Sant Kakkya Marg, Dharavi (E) Mumbai -400017",Yes,No,No,19.043204,72.8542832
Gandhinagar Co.Op.Hu.So.L. Vyayam Shala and Samaj Kalyan Kendra,"Grl.Floor (Near Old Ganesh vidya mandir School ) Dharavi Cross road, Dharavi Mumbai 400017",No,No,No,19.0431456,72.8546662
"Sathi Co op hos Society Ltd,Parking","Parking No 1, Sathi Mini Hall, Sathi Co op hos Society Ltd, 90 Feet Road, Dharavi Mumbai  400017",No,Yes,Yes,19.0396839,72.8543017
"Vaibhav Sanskurtik Kendre, Near  Mumbai Public English School,","Vaibhav Sanskurtik Kendre, Near  Mumbai Public English School, Jasmin Mill Road,  Matunga Lubour camp, Mumbai 400019",No,No,No,19.0381943,72.85125769999999
Diomand Banquet Hall,"Diomand Banquet Hall,Jasmin Mill Road, Opp Baliga nagar Society, Mahim East Dharavi Mumbai 400017",Yes,No,No,19.0423745,72.84790749999999
"Dharavi Business mens  Welfare Association,","Dharavi Business mens  Welfare Association,  Banwari compound, Dharavi main road, Mahim Fatak Mahim East Dharavi Mumbai 400017",No,Yes,No,19.0446686,72.8522163
"Kamraj memorial english school, ground floor","Partition no 01, ground floor new bldg 90 feet rd dharavi mum 17",No,Yes,No,19.0383916,72.8541548
old kamraj school,room no. 01 ground floor near new kamraj memorial school 90 feet rd mum. 17,No,No,No,19.0419306,72.8555173
B.M.C Chowki,"Room No- 02, in Between B.M.C Building No G-13 and No.G -20, Near Shahu Nagar Police Station Mahim-East Mumbai 400019",No,No,Yes,19.0371737,72.8490747
"Mumbai Public School Matunga Labour Camp, No-2 School Sankul ( Municipal School ),",Ground Floor Room No- 13 (Office) Ambedkar road dharavi mumbai 400019,Yes,Yes,Yes,19.0362591,72.8511749
B. M. C. Chowki No- 3,"Near Tata Power, Matunga Labour Camp, Near Municipal School No-1, Matunga Mumbai 400019",Yes,Yes,No,19.0211125,72.854815
"Gandhi Memoriyal High School and Junior College,","Room No- 1, kamala nagar ( Near Sebastian Church )Matunga Labour Camp, Jasmin Mill Road, Dharavi Mumbai -400019",Yes,No,No,19.0405866,72.8498863
Gymkhana Kalyankari Bhadekaru Sangh,Shahu Nagar Dharavi Transist Camp Mumbai-400017,Yes,Yes,Yes,19.0418807,72.85782499999999
B.M.C Chowki in Between B.M.C Building No G-13 and No.G -20.,"Room No-1,Near Shahu Nagar Police Station Mahim-East Mumbai 400019",Yes,Yes,No,19.0371737,72.8490747
Mumbai Public School,Room No-1 Rajshri Shahu Nagar - Jasmin Mill Road Matunga Labour Mumbai 19,Yes,No,No,19.0398489,72.849938
Matunga Labour Camp B.M.C School No-3 ( Gandhi Memorial English Primary School),Gr Floor Room No-1 Dharavi Mumbai-400019,No,Yes,Yes,19.0269012,72.8553773
Dr.Babasaheb Ambedkar Samaj Mandir,"Hall Partition -1, Between ward A   B, Opp.MSEB, M.L.Camp, Mumbai 19",No,Yes,Yes,19.038225,72.85297
Maharashtra state Womens Councial Nursary School Abhilasha padmavati saraiya kendra,"Maharashtra state Womens Councial Nursary School,vocational training study center Ground floor Room No 1, Matunga Labour Camp, Mumbai 19",No,No,No,19.0383234,72.8514711
Children Education Society Banayan Tree english high school,"Children Education Society, Banayan Tree english high school,Ground floor Room No. 1, Matunga Labour Camp, Mumbai 19",No,No,No,19.0362411,72.8527385
Mumbai Public School Matunga Labour Camp.No 2 School Sankul ( Municipal School ),"Ground Floor Room No. 1, Dr.Babasaheb Ambedkar RoadDharavi, Mumbai 400019",No,No,Yes,19.02534,72.854373
"Mantunga Labour Camp Municipal School No.1,","ground floor dr. room no. 01 babasaheb ambedkar rd 1, Mumbai 19",No,No,No,19.0102608,72.8427023
Mahim Police Colony Mun. Marathi School,"Building No   2 Room no. 1. Mahim Machchhimar Colony Mahim , Mumbai 16",No,No,Yes,19.0367489,72.8441041
St. Xavier Technical Institute,"Old Building, Ground Floor, Room at the Right side Of Main door Mahim Causeway,(E) Mahim , Mumbai 16",No,No,Yes,19.0482894,72.83830139999999
St. Xavier Institute of Engineering.,"(New Building)Ground Floor, Seminar Hall A Room No.1 Mahim Causeway,(E) Mahim , Mumbai 16",Yes,No,No,19.0367489,72.8441041
"St. Xavier Engineering Institute,","New Building. Ground Floor, Basic Electrical Engineering Lab Mahim Causeway,(E) Mahim , Mumbai 16",No,Yes,Yes,19.0472297,72.8380103
"Municipal School Mahim Causeway,",Ground Floor. Mumbai 16,Yes,No,Yes,19.0759837,72.8776559
"K L Khilnani High School And Junior College,","Ground Floor, K G Room No. 1 Mori Road, Mahim, Mumbai-16",Yes,No,No,19.043049,72.8414769
"St. Michael High School,","Ground Floor, Room No. 5, Lady  Jamshetjee Road, Mahim,  Mumbai 16",Yes,Yes,No,19.026114,72.84111399999999
"Mumbai Public School, New Mahim School Complex,","Ground Floor Room No.07, Miya Mohammed Chhotani Road No. 4, Mahim, Mumbai 16",Yes,Yes,No,19.0397613,72.84514010000001
"Mumbai Public School, R. C. Mahim Municipal School Complex,","Ground Floor, Room No. 2, Lady Jamshetjee Cross Road No. 2 ,Mahim, Mumbai-16",No,No,Yes,19.0352579,72.8420965
"Cannosa Primary School, Primary Section,","Ground Floor, Stilt Parking, Partition A, Gabriel Road,  Mahim, Mumbai 16",No,No,Yes,19.038476,72.8432193
Anjuman-I-Islams Khalifha Ziauddin Girls Primary School.,"Ground Floor. Room No. A 1 Lady Jamshetjee Road Mahim, Mumbai - 16",Yes,Yes,Yes,19.0302475,72.8416927
Western RailwayCommunity Hall,"Hall A Railway Colony, Matunga, Takanadas Katariya Marg, Matunga, Mumbai - 19",No,Yes,Yes,19.0298993,72.84781869999999
"Saraswati Mandir Marathi Primary School,","CBSE Building, Ground Floor,  Room No. 02, Senapati Bapat Marg  Mahim, Mumbai 16",Yes,Yes,No,19.0356618,72.8477083
"Makarand Co-Op. Hou. Soc.-A,","Shefali Building, Ground Floor, Hall- A Veer Savarkar Marg Mahim, Mumbai - 16",Yes,Yes,Yes,19.0274096,72.8362006
"Western Railway Welfare Center,","Railway Colony, Matumga, Takandas Katariya Road, Matunga, Mumbai - 19",No,Yes,No,19.0298993,72.84781869999999
Central Railway Institute,"Hall A East Side Venden Avenue Road, Matunga, Mumbai - 19",No,Yes,Yes,19.0268747,72.8553352
Ramnath Prasad Hall,"Hall Gr. Floor, East Side Shitaladevi Temple Road Mahim",Yes,Yes,Yes,19.0353167,72.8433637
Tendulkar Hall,"Gr. Floor. Mogal Lane Mahim, Mumbai - 16",Yes,Yes,Yes,19.031576,72.846217
Victoria Primary School.,"Gr. Floor, Room No. 7, Lady Jamshetjee Road Mahim, Mumbai - 16",Yes,Yes,No,19.0375079,72.8427055
"Samaj Sadan Kendra Hall,","Gr. Floor, Telephone Colony, Pandit Satavalekar Marg Mogal Lane,Mahim , Mumbai - 16",Yes,Yes,Yes,19.031576,72.846217
"Lokmanya Vidyamandir,","Ground Floor, Open Gym Partition - A, Mahim, Mumbai 16",Yes,Yes,Yes,19.0353849,72.8423036
"Bombay Scottish School,","Ground Floor, North side, Room no. G/1/C Veer Savarkar Marg, Mahim,Mumbai - 16",Yes,No,Yes,19.034985,72.8391658
"Tatyasaheb Oak Memorial Hall,","Gr. Floor, Takanadas Katariya Marg, Mahim, Mumbai - 16",No,Yes,No,19.0319666,72.84121920000001
"Kasturba Mahila Mandal, Shivaji Park, Lions Primary   Secondery School (Gujarati Medium),","Gr. Floor Hall, Senapati Bapat Marg, Mahim, Mumbai - 16",Yes,No,No,19.0166272,72.84069319999999
"Victoria High School,","Annex, Ground Floor, Room No. K-5-B Lady Jamshetji Road Mahim, Mumbai - 16",Yes,No,No,19.0412054,72.8408412
"Mumbai Public School City of Los Angeles Municipal School Complex,","Gr. Floor, Room No. 1 Manamala Tank Road, Mahim, Mumbai - 16",Yes,No,No,19.1180869,72.8227161
"Mahim Head Post Office,","Open Space In Front of Office, Pendol, Partition - A, Takandas Kataria Road, Mahim-Mumbai-16",No,Yes,No,19.0319666,72.84121920000001
"D. G. Ruparel College,","Science Building Ground Floor, Room No. 26 A Bal Govinddas Road, Mahim, Mumbai - 16",Yes,Yes,Yes,19.0271798,72.842581
"Balamohan Vidyamandir,","Gr. Floor (North Side), Room No. 17, Dr. Madhukar B. Raut Marg, Dadar, Mumbai - 28",No,No,No,19.029289,72.83867699999999
"Mumbai Public School Dadar (Woolen Mills),","Ground Floor, Room No. GF/L-2, J. K. Sawant Road, Mahim, Mumbai-16",No,No,Yes,19.0279706,72.8433859
"Laxmi Narayan Baag Hall,","Hall North Side, Bal Govinddas Road, Mahim, Mumbai - 16",Yes,No,Yes,19.0270942,72.84266269999999
"Chhabildas Mula-Mulinche Vidyalaya, Dadar,","Gr. Floor, Room No.27, Chhabildas Road, Dadar, Mumbai - 28",Yes,Yes,Yes,19.0200417,72.8423586
"Vanita Samaj, Stilt Parking,","Ground Floor, Swa. Veer Savarkar Marg (West), Dadar, Mumbai - 28",Yes,No,Yes,19.0156307,72.8275342
"Brahamn S. Sangh. Rationing Office No. 19-A,","19-A, Officer Room, Shivaji Park Road No. 3, Dadar, Mumbai - 28",Yes,No,Yes,19.0247247,72.83979260000001
"Balmohan Vidya Mandir,","Gr. Floor, (South Side), Room No. 1,Dr. Madhukar B. Raut Road, Dadar, Mumbai - 28.",No,Yes,No,19.0285454,72.84031
"Antonia DSilva High School,","New Building Ground Floor Room No.  C 10 C S.K. Bole Road Dadar, Mumbai-28",Yes,Yes,No,19.0195226,72.8402976
"Indian Education Societies,","Ashlane English Medium School, Gr. Floor, Hall, Partition-A D. S. Babrekar Marg, Dadar, Mumbai - 28",No,No,Yes,19.02253,72.8345554
"Suryavanshi Kshatriya Sabhagrah, Hall B,","Hall B, Ground Floor, (East Side), Swa. Veer Savarkar Marg (West), Dadar, Mumbai - 28",Yes,No,No,19.0156307,72.8275342
"Suryavanshi Kshatriya Sabhagruh,","Hall, Ground Floor, Partition B (East Side), Swa. Veer Savarkar Marg (West), Dadar, Mumbai - 28",Yes,No,Yes,19.0156307,72.8275342
"Chhabildas English Medium,","Ground Floor, LKG Room,Chhabildas Marg, Dadar, Mumbai - 28",Yes,Yes,No,19.0177989,72.84781199999999
"Dr.Antonio Dsilva High school,","Old Building Gr. Floor, Room No. 16, Rao Bahadur S. K. Bole Road,Dadar, Mumbai - 28",No,No,No,19.0186449,72.83383230000001
Suryavanshi Kshatriya Sabhagruh,"Hall Gr. Floor Partition A, (West Side), Swa. Veer Savarkar Marg (West), Dadar, Mumbai - 28",No,No,No,19.0156307,72.8275342
"Kriti M. Doongursee College,","Ground Floor, Hall-A Kashinath Dhuru Road (North), Dadar, Mumbai - 28",Yes,No,Yes,19.0204516,72.83141619999999
"Amar Hind Mandal Hall-A,","Hall-A, Gr. Floor (East Side) Gokhale Road (North), Dadar, Mumbai - 28",No,No,Yes,19.0217439,72.83775849999999
"Amar Hind Mandal Hall-B,","Hall-B, Gr. Floor (West Sade) Gokhale Road (North), Dadar, Mumbai - 28",Yes,Yes,No,19.0217439,72.83775849999999
"Our Lady Of Salvation Highschool,","Gr. Floor, K. G. Class-A Rao Bahadur S. K. Bole Road, Dadar, Mumbai - 28",Yes,No,Yes,19.0183642,72.8327158
"Kirti M. Doongursee College,","NMITD Building, Ground Floor, Room No. E 2, Kashinath Dhuru Road (North), Dadar, Mumbai-28",Yes,Yes,No,19.0208223,72.83090600000001
"National Skill Training  Institute For Women,","Gr. Floor, Room No. 1, Sva. Veer Savarkar Marg (East), Dadar, Mumbai 28",No,Yes,Yes,19.0247645,72.8354943
"Mumbai Public School,","Gokhale Road Room  No. 3, Dadar, Mumbai 28",Yes,No,Yes,19.03172,72.84182659999999
"Maharashtra High School No. 2,","Gr. Floor, Room No. 6 Pri. Raosaheb N. M. Kale Marg, Dadar, Mumbai- 28",Yes,Yes,No,19.0172173,72.8341468
"Gokhale Road (South), Mumbai Public School","Ground Floor, Room No. 09 Baburao Parulekar Marg, Dadar, Mumbai - 28",No,No,Yes,19.0157427,72.8363928
Convent Girls School,"Gr. Floor, Room No. 1A Kakasaheb Gadgil Marg, Prabhadevi, Mumbai - 25",Yes,Yes,No,19.015536,72.8323769
Reserve Bank Officers Quarters Building,"Flat No. 1 to 20, Stilt Parking - A (Soth-East Side) Sonapur Lane, Prabhadevi, Mumbai - 25",Yes,No,No,19.0215803,72.8172895
Kalptaru Building,"Stilt Parking, Partition-C Sangitaratna Eknath Buva Hatisakar Marg, Prabhadevi, Mumbai - 25",No,No,Yes,19.0167728,72.8246082
"Maharashtra ,kamagar Kalyan Kendra","Gr. Floor, Prabhadevi New Prabhadevi Road, Prabhadevi, Mumbai - 25",Yes,No,No,19.0101827,72.8296312
"Mumbai Public School, Prabhadevi, Marathi Medium  School,","Gr. Floor, Room No. 01, Murari Ghag Marg,Prabhadevi, Mumbai-25",Yes,No,Yes,19.0139592,72.8269225
"Murari Ghag Ground, Open Space","(pendol Partition-A) Murari Ghag Marg, Prabhadevi, Mumbai - 25",No,Yes,Yes,19.0145638,72.82666499999999
Murari Ghag Ground,"Open Space, (pendol Partition-D)Murari Ghag Marg, Prabhadevi, Mumbai - 25",Yes,No,Yes,19.0145638,72.82666499999999
SHETH DAMODAR MADHAVJI CHARITY TRUST DAMUL NIWAS,"GR.FLOOR HALL NO 2 BHULABHAI DESAI ROAD, MUMBAI-26",Yes,Yes,Yes,18.964781,72.80471519999999
SHIVSHANKAR BUILDERS AND DEVELOPERS (TULSIDAS GOPALJI TRUST),"OPEN GROUND NEAR MARRIAGE HALL, PARTITION-1 Bhulabhai Desai road Mumbai 400026",No,No,No,18.969175,72.8077409
MODEL CO.-OP.HOUSING SOCIETY HALL (SAHAKAR NIWAS),GR. FLOOR  102 PANDIT  MADAN MOHAN MALVIA ROAD TARDEO MUMBAI 400034,No,No,Yes,18.9734056,72.8141971
SHRI. B.P.K. SAHAKARI VIDYA MANDIR,"GROUND FLOOR, STD.10TH CLASS PANDIT MADAN MOHAN MALVIA ROAD TARDEO MUMBAI 400034",No,Yes,No,18.9739185,72.8136752
"SHRI. B.P.K. SAHAKARI VIDYA MANDIR,","GROUND FLOOR, STD.9TH/A CLASS  PANDIT MADAN MOHAN MALVIA ROAD TARDEO MUMBAI 400034",Yes,No,No,18.9739185,72.8136752
"Shri B.P.K Sahakari Vidya Mandir,","GROUND FLOOR, COMPUTER ROOM  PANDIT  MADAN MOHAN MALVIA ROAD TARDEO MUMBAI 400034",No,No,No,18.9739185,72.8136752
Victoria Memorial School for the blind,"HALL, GROUND FLOOR PANDIT MALVIA ROAD, MUMBAI -034",No,No,Yes,19.1719565,72.9442938
victoria Memorial School for the blind,"Seminal Hall, Pandit Malvia road, Tardeo, Mumbai-34",Yes,No,Yes,19.0996348,72.849108
R.T.O OFFICE,"NEAR  P.R.O OFFICE ROOM NO 1 GROUND FLOOR, R.T.O BODYGUARD LANE MUMBAI-34",No,Yes,Yes,18.9738057,72.817572
R.T.O. Office,CANTEEN GROUND FLOOR R.T.O BODYGUARD LANE MUMBAI 34,Yes,No,No,19.0759837,72.8776559
R.T.O. OFFICE,"C Block Hall Partition 1 Ground Floor,R.T.O. BODYGUARD LANE MUMBAI 34",No,Yes,No,19.0759837,72.8776559
YUSUF MEHAR ALI SCHOOL,"ROOM NO. 2, STD. 10-A CLASS, GROUND FLOOR Tulshiwadi road Mumbai 400 034",No,Yes,No,18.9736384,72.8181971
Sadhana Building Society,Ground Floor Parking no.1 Navaroji Gamadia Marg Mumbai 26,Yes,No,No,18.9742272,72.8089416
ACTIVITY HIGH SCHOOL,"GROUND FLOOR, STD. 1ST, NEAR MONTESARY MAIN  Navaroji Gamadia Road Mumbai 026",Yes,Yes,Yes,18.9744258,72.8079111
BHAUSAHEB HIRE VIDYALAYA INTERNATIONAL SCHOOL,PARKING PASSAGE PART ROOM NO 10 GROUND FLOOR M P MILL COMPOUND B.B. NAKASHE MARG Tardeo MUMBAI 34,Yes,Yes,Yes,18.9722523,72.8135969
JANATA KENDRA HALL,"PARTITION-1, GROUND FLOOR Narayan Tawde Chowk near Tulshiwadi post office Tardeo Mumbai 034",Yes,No,No,18.9747163,72.8139964
SIR COWASJEE JAHANGIR HIGH SCHOOL,GROUND FLOOR HALL  Sir Ratan Tata road Mumbai 034,Yes,No,No,18.9720523,72.816199
TARDEO MUNICIPLE UPPER PRIMARY MARATHI SCHOOL,"GROUND FLOOR, ROOM NO.14 SANE GURUJI MARG MUMBAI 034",No,No,No,18.982602,72.827901
"SAMAJ MANDIR GYMKHANA, (STAGE)","GROUND FLOOR, POLICE QTRS M P Mill compound Mumbai 034",No,Yes,Yes,18.9707455,72.8139507
TARDEO POLICE VASAHAT,"BALWADI BUILDING NO. 2, ROOM NO. 2. M P MILL COMPOUND, TARDEO, MUMBAI 034",Yes,No,Yes,18.9704832,72.81397849999999
SHANTI DEVI BANARJI SCHOOL,"THE WATCHMAN STAFF ROOM, FAUKLAND ROAD LOW LEVEL MUMBAI 034",No,Yes,Yes,18.9622736,72.82263220000002
LADY ENGINEERING HIGH SCHOOL,"GROUND FLOOR, STD. 7TH Gamadia Colony Mumbai 400007",Yes,No,No,18.9689705,72.8124046
GARTAN GIRLS HIGH SCHOOL,"GROUND FLOOR, NURSERY CLASS ROOM Naushir Bharucha Marg Mumbai 07",Yes,Yes,Yes,18.9192294,72.8285501
SUDATTA HIGH SCHOOL,"INDIRABAI KALYANPURKAR HALL, GROUND FLOOR, ROOM NO 01 235 Javji Dadaji road Mumbai 07",Yes,Yes,No,19.0759837,72.8776559
GREEN LAWNS HIGH SCHOOL,"GROUND FLOOR, NURSERY .1 Bomanaji Petit road Mumbai 026",No,Yes,Yes,18.9893319,72.837868
"SUDATTA HIGH SCHOOL, (INDIRABAI KALYANPURKAR HALL) PART 3",GROUND FLOOR Tukaram Javji road Mumbai 07,Yes,Yes,No,18.9653511,72.81450269999999
Shreemat Anandashram Hall Ground floor,"PARTITION 1 BEHIND SUDATTA HIGH SCHOOL TUKARAM JIVAJI ROAD, MUMBAI-07",Yes,No,No,18.9371782,72.8348548
shreemat Anandashram Hall,"PARTITION 2 HALL GROUND FLOOR, BEHIND SUDATTA HIGH SCHOOL, TUKARAM JAVJI ROAD MUMBAI 07",Yes,No,No,18.9653485,72.8145176
UNIVERSAL HIGH SCHOOL,"JR. KG B ROOM, OPP. PRINCIPLES CHEMBER, GROUND FLOOR. Tukaram javji road Mumbai 07",No,No,Yes,18.9653511,72.81450269999999
RAJASTHANI MAHILA MANDAL SANCHALIT (ADARSH VIDYALAY),"GROUND FLOOR, HALL-A V N Road Mumbai 36",Yes,No,No,18.9329803,72.8271991
RAJASTHANI MAHILA MANDAL,"Canteen Room,  V N Road Mumbai 36",Yes,Yes,Yes,18.9329803,72.8271991
VILA TERESA CONVENT SCHOOL,GROUND FLOOR CANTEEN PARTITION-1 (NEW BUILDING) Dr. Gopalrao Deshmukh Road Mumbai 026,Yes,Yes,Yes,18.9715741,72.8094346
"VILA TERESA CONVENT SCHOOL,","GROUND FLOOR classroom, ROOM No.-04 Dr. Gopalrao Deshmukh Road Mumbai 026",Yes,Yes,No,18.9776726,72.810045
"NEW MODEL INFANT SCHOOL,","GROUND FLOOR, ROOM NO.1 Bhulabhai Desai Road Mumbai 026",No,No,Yes,18.969175,72.8077409
"JAGANNATH SHANKARSHETH BMC MARATHI SCHOOL,","ROOM NO.7, GROUND FLOOR JAGANNATH SHANKARSHETH CHOWK,FAIRE BRIDGE LOW LEVEL MUMBAI 07",Yes,Yes,Yes,19.175509,72.95743209999999
NEW MODEL INFANT SCHOOL,INFANTS A GROUND FLOOR Bhulabhai Desai Road Mumbai 026,Yes,Yes,Yes,18.9762458,72.8073464
"FELLOWSHIP HIGH SCHOOL, (MAITRY SADAN)",GROUND FLOOR HALL PARTITION -1 August Kranti Marg Mumbai 036,Yes,No,No,18.9635828,72.81025799999999
AASHRAYA ABHYASIKA,GROUND FLOOR SHED 60 Khemraj Krishnadas Marg Mumbai 04,Yes,Yes,Yes,19.0759837,72.8776559
"KAMABALA HILL ENGLISH HIGH SCHOOL,","GROUND FLOOR, ROOM NO. 1 Darbasha road Mumbai 06",No,Yes,No,19.1180869,72.8227161
NEW ERA SCHOOL,"GROUND FLOOR, STD 5TH A Justice Sitaram Patkar road Mumbai 07",No,No,Yes,19.1696069,72.847276
"SEVA SADAN SOCIETY,","RAMABAI NAVRANGE ADHYAPIKA, GROUND FLOOR, (SECOND YEAR)-B Pandita Ramabai Road Mumbai 07",No,Yes,No,19.0962103,72.8949392
EDUBRIDGE INTERNATIONAL SCHOOL (ROBERT MONEY HIGH SCHOOL OLD BUILDING),"GROUND FLOOR, ROOM NO.1, wadilal Patel Marg Mumbai-07",No,Yes,Yes,19.1180869,72.8227161
"EDUBRIDGE INTERNATIONAL SCHOOL (ROBERT MONEY HIGH SCHOOL OLD BUILDING),","GROUND FLOOR, PARTITION 1, Wadilal Patel Marg, Mumbai 07",Yes,No,No,18.9570907,72.8202241
"EDUBRIDGE INTERNATIONAL SCHOOL (ROBERT MONEY HIGH SCHOOL OLD BUILDING) GROUND FLOOR, PARTITION 3","GROUND FLOOR, PARTITION 3, Wadilal Patel Marg, Mumbai 07",Yes,No,Yes,18.9570907,72.8202241
"SARDAR HIGH SCHOOL,","BACKSIDE GROUND FLOOR, ROOM NO. 18,  24/26Khetwadi 12 Lane, Mumbai -04",Yes,No,Yes,18.961842,72.8217401
"THE BHARAT EDUCATION SOCITY SANT GADGE MAHARAJ COLLEGE OF COMMERCE AND ECONOMICS,","GROUND FLOOR HALL, PART 1 (NORTH SIDE) 24/26 KHETWADI 12TH LANE MUMBAI 04",No,No,No,18.9602217,72.8211638
THE BHARAT EDUCATION SOCITY SANT GADGE MAHARAJ COLLEGE OF COMMERCE AND ECONOMICS,GROUND FLOOR HALL PART-3 (SOUTH SIDE) 24/26 KHETWADI 12TH LANE MUMBAI 04,Yes,No,Yes,18.9602217,72.8211638
SARDAR HIGH SCHOOL,"GROUND FLOOR, BOY S COMMON ROOM NO. 15 24/26 Khetwadi 12th Lane Mumbai-04",No,Yes,Yes,18.9602217,72.8211638
"WEST KHETWADI MUNICIPAL MARATHI SCHOOL NO.1,","GROUND FLOOR, COMPUTER ROOM, 60 KHEMRAJ KRISHNADAS MARG, MUMBAI-04",Yes,No,No,19.0759837,72.8776559
"Ideal Edu.soc.Union high School ,","GR, FLOOR, BALWADI ROOM, 205 A.V KOLATKAR MARG, INFRONT OF KHETWADI 10TH LANE MUMBAI 04",No,Yes,Yes,18.9598383,72.8223862
Ideal Edu.soc.Union high School,"Gr. floor, hall partition- 2  A. V. Kolatkatkar marg khetwadi 10th lane Mumbai 04",No,No,No,18.9598383,72.8223862
"ASHRAY ABHYASIKA,","GROUND FLOOR, ROOM NO.1 khermraj krishnadas marg Mumbai-04",Yes,Yes,No,19.1180869,72.8227161
"VANITA VISHRAM HALL,",GROUND FLOOR HALL PARTITION 1 sardar Vallabhbhai Patel marg Mumbai-04,Yes,No,No,19.0759837,72.8776559
"SUNITI GIRLS HIGH SCHOOL (SHIKSHAN SANSTHA, ASHOK HIGH SCHOOL) GROUND FLOOR, ROOM NO. 14","GROUND FLOOR, ROOM NO. 14,  10-14 parekh street Mumbai-04",Yes,Yes,Yes,18.9591224,72.8196279
"SUNITI GIRLS HIGH SCHOOL (SHIKSHAN SANSTHA, ASHOK HIGH SCHOOL)","GROUND FLOOR,HALL PARTITION NO.1  10-14 parekh street Mumbai-04",Yes,No,No,18.9591224,72.8196279
"QUEENS MERRY HIGH SCHOOL GROUND FLOOR, OPP.","LUNCH HALL ROOM NO.1, 425 vitthalbhai patel marg, Mumbai-04",Yes,No,No,19.1200052,72.83977589999999
WILLSON HIGH SCHOOL OLD BUILDING,"GROUND FLOOR ROOM NO 1, DR. WILLSON STREET MUMBAI 4",No,Yes,Yes,18.9566732,72.824066
MODERN HIGH SCHOOL (SIKKANAGAR),"GROUND FLOOR, ROOM NO. 2, 138N Vitthalbhai patel marg Mumbai-04",Yes,Yes,Yes,18.9565812,72.8222725
"LILAVATI LALAJI DAYAL HIGH SCHOOL,","GROUND FLOOR, ROOM NO.1, STD. 5, sardar Vallabhbhai patel Marg, Mumbai-04",Yes,Yes,No,19.1316058,72.8689565
Brahmin Hall,"Hall Partition 1, Raja Ram Mohan Roy road , Mumbai 04",No,No,No,18.9569726,72.819645
MARWADI HIGH SCHOOL,"GROUND FLOOR BACKSIDE SHED, 473 sardar vallbhbhai patel marg,  Mumbai-04",Yes,No,No,19.0759837,72.8776559
"SHETH DGT HIGH SCHOOL(GOKHALE EDUCATION SANSTHA),","GROUND FLOOR, ROOM NO.1, 383C Vitthalbhai patel marg, Mumbai-04",Yes,No,Yes,18.9586742,72.815924
"SHARADA MANDIR HIGH SCHOOL,","GROUND FLOOR HALL PARTITION- 4 Harishchandra Goregaonkar Marg, Mumbai-04",No,Yes,Yes,18.9584672,72.8134022
HAJARIMAL SOMANI COLLEGE(BHAVANS COLLEGE),"GROUND FLOOR, PHY- CHEMISTRY LAB NO.03,  15 Kulpati K M Munshi Marg Mumbai-07",No,Yes,No,18.9579661,72.8101061
HAJARIMAL SOMANI COLLEGE BHAVANS COLLEGE,"GROUND FLOOR DEPT OF CHEMISTRY STAFF ROOM, 15 KULPATI K.M. MUNSHI MARG MUMBAI 7",Yes,No,No,18.9579661,72.8101061
"ARYAN HIGH SCHOOL,","GROUND FLOOR HALL PARTITION 1,  75 Jagnnath Shankar Sheth Marg Mumbai-04",Yes,Yes,No,18.9560548,72.8173523
KSHATRIYA DNYATI NIWAS HALL,"GROUND FLOOR HALL, 229 RAJA RAM MOHAN ROY MARG, MUMBAI-04",Yes,No,Yes,18.9556023,72.8188452
KRB ANANT SHIVAJI DESAI TOPIWALE VACHANALAY HALL,"GROUND HALL M.H. NO. 145 A  Jagnnath shankar sheth marg, Mumbai-04",Yes,No,Yes,18.9553695,72.8196605
"MODERN HIGH SCHOOL, SIKKA NAGAR",GROUND FLOOR HALL PARTITION NO 2  Vitthalbhai patel marg Mumbai-04,Yes,No,No,18.955547,72.825017
"MODERN HIGH SCHOOL,","Sikka nagar, Corridor vitthal bhai patel road Mumbai -04",No,Yes,Yes,18.9562586,72.8228282
CHANDARAMJI GIRLS HIGH SCHOOL,OLD BUILDING GROUND FLOOR CANTEEN HALL PARTITION NO 2 Khadilkar road Mumbai-04,Yes,Yes,No,18.95384,72.823835
Earth Pride society,"Car Parking Partition -1, Khadilkar road, Mumbai-04",Yes,Yes,No,18.9547456,72.82186
Earth Pride Society,"Car Parking Partition -2, Khadilkar road, Mumbai-04",Yes,Yes,Yes,18.95384,72.823835
MORARBAG CENTRAL HALL,"GROUND FLOOR PART 1, 33 Nath Madhav Lane, Mumbai-04",Yes,No,No,18.9543174,72.8254243
"MORARBAG CENTRAL HALL,","GROUND FLOOR PART 2 33 Nath Madhav Lane, Mumbai-04",Yes,Yes,Yes,18.9543174,72.8254243
"VISHNUBAG HALL,","GROUND FLOOR, PART A SHENVIWADI ,KHADILKAR MARG MUMBAI 04",Yes,No,No,18.954966,72.823069
"Shripati Jewels CHS,",Society Office Ground Floor Tatya Gharpure Path Girgaon SHENVIWADI KHADILKAR MARG MUMBAI 4,No,No,No,18.9556368,72.8202542
Shripati Jewels CHS,Store room Ground Floor Tatya Gharpure Path Girgaon SHENVIWADI KHADILKAR MARG MUMBAI 4,Yes,No,No,18.9556368,72.8202542
CHIKISTAK SAMUH HIGH SCHOOL,"(PODDAR PRIAMARY SCHOOL) GROUND FLOOR, ROOM NO. G1, Sadashiv cross lane Mumbai-04",Yes,No,Yes,18.9553692,72.8216409
Aryan Education Society girls School,"Shardasadan, Jagnnath shankar sheth Marg, Girgaon, Mumbai-04",Yes,No,Yes,18.9542003,72.8202339
"K.P.B. HINDUJA COLLEGE,","GROUND FLOOR, ROOM NO. G8 Raja Ram Mohan Roy Road Mumbai-04",Yes,Yes,No,18.9569008,72.8194233
"SHRI HALAI LOHANA MAHAJAN TRUST HALL PART 1,",GROUND FLOOR (East Side) 6/10 Thakurdwar Marg Dr. Babasaheb Jaikar Marg Mumbai-04,Yes,No,Yes,18.952036,72.8231644
"SHRI HALAI LOHANA MAHAJAN TRUST HALL PART 2, GROUND FLOOR (East Side)","PART 2, GROUND FLOOR (East Side) 6/10 Thakurdwar Marg Dr. Babasaheb Jaikar Marg Mumbai-04",No,No,No,18.952036,72.8231644
SHRI HALAI LOHANA MAHAJAN TRUST,"HALL PART 3, GROUND FLOOR (East Side) 6/10 Thakurdwar Marg Dr. Babasaheb Jaikar Marg Mumbai-04",Yes,No,No,18.952036,72.8231644
"SENT TERESA HIGH SCHOOL,","GROUND FLOOR, ROOM NO.2 (KGA) 315 Raja Rammohan Roy Road Mum 04",Yes,Yes,Yes,18.9532261,72.8182788
"BEHAMRAMJI JIJIBHAI INSTITUTE,","GROUND FLOOR, ROOM NO. 8,  33A Maharashri Karve road Mumbai-04",Yes,Yes,Yes,18.9259985,72.82797029999999
"D.S.B. INTERNATIONAL SCHOOL,","GROUND FLOOR, Hall PARTITION 1, 25 Dadeesheth road Babulnath Mumbai-07",No,No,No,18.9592844,72.8087115
"DY. ENGINEER OFFICE,","GROUND FLOOR, PWD Dept.  Shrimati Khatiba Shaffi Tayyabji Marg Mumbai -06",No,No,No,18.9436403,72.8315542
DY. ENGINEER (NEW CHEMBER),"GROUND FLOOR, PWD OFFICE Shrimati Khatiba Shaffi Tayyabji Marg Mumbai -06",Yes,Yes,No,18.9436403,72.8315542
"CATHEDROL   JHON CANON INFANT SCHOOL,","GROUND FLOOR, L1K(LOWER ONE CARE) Shrimati Khatiba Shaffi Tayyabji Marg Mumbai -06",No,Yes,No,18.9436403,72.8315542
"DIVYALOK BUILDING,","GROUND FLOOR HALL PART 1,NEAR SATPUDA BUILDING, L. D. Ruparel  Marg Mumbai-06",Yes,No,No,18.9549913,72.8011844
DIVYALOK BUILDING,"GROUND FLOOR HALL PART 2 NEAR SATPUDA BUILDING, L. D. Ruparel  Marg Mumbai-06",No,Yes,Yes,18.9549913,72.8011844
"KHAMBALA HILL ENGLISH HIGH SCHOOL,","GROUND FLOOR, STD. 2A, Bhahusaheb Hire marg Mumbai-06",Yes,No,No,18.9529073,72.80035819999999
"VALSINGHAM HIGH SCHOOL,","BASMENT, KG SECTION ROOM NO. 1,  78 Lady Laxmibai Jagmohandas marg Mumbai-06",No,No,Yes,18.9570843,72.7997869
"GOPI BIRLA MEMORIAL PUBLIC SCHOOL,","GROUND FLOOR, ROOM NO. 1, 68 Walkeshwar road Mumbai-06",No,No,Yes,18.9506165,72.80288949999999
"MANAV MANDIR TRUST,","GROUND FLOOR HALL PART 1, Manav Mandir road Mumbai -06",Yes,No,No,18.9498976,72.79636339999999
Below Rocky Hill Compd,B Wing Parking area Partition No1 NARAYAN DABHOLKAR ROAD MUMBAI 6,Yes,Yes,Yes,18.9513877,72.7942499
"KAWALE MATH MUNICIPAL SCHOOL,","GROUND FLOOR SHED PARTITION 1, DUNGARSHI ROAD MUMBAI-06",Yes,Yes,No,19.0759837,72.8776559
"Purnanand Society,","Car parking partition-1, Bhagwandas road, walkeshawar banganga, Mumbai-06",No,No,Yes,18.950754,72.8020638
"MUNICIPAL HINDI SCHOOL,","GROUND FLOOR, ROOM NO.3 DR. BHAGAVANDAS ROAD MUMBAI-06",No,Yes,Yes,19.0759837,72.8776559
Purnanand Society,"Car parking partition-2, Bhagwandas road, walkeshawar banganga, Mumbai-06",No,Yes,Yes,18.950754,72.8020638
RAJ BHAVAN CLUB,"GROUND FLOOR HALL 272, WALKESHWAR ROAD, MUMBAI-06",Yes,Yes,Yes,18.943685,72.79451949999999
"Holy Cross High school,","primary section, Ground floor, Room no. 1, Mumbai-400013",No,Yes,Yes,19.1180869,72.8227161
"Social Service league highschool, Silver Jubilee Building,","Social Service league highschool, Silver Jubilee Building, English School, Room No 1,Ground Floor, Parel, Mumbai 400012",No,No,Yes,19.0035047,72.84183879999999
Jagannath Bhatnakar Marg Uppar Primary Municipal school no.2,"Ground Floor, Room No. 1, Parel, Mumbai-400012",No,No,No,19.0059503,72.83123239999999
Best Colonial Grounds in the Backyard of Mahatma Phule Technical High School,"Mandap A, Best Colonial Grounds in the Backyard of  Mahatma Phule Technical High School Bhoiwada, Mumbai-400012",Yes,Yes,Yes,19.0048419,72.8460091
"Mumbai Public School,(English Medium),","Mandap  A ,D.G.Mahajani Road, Shivadi Cross Road, Shivadi West, Mumbai-400015",Yes,No,No,19.0038767,72.8531967
"Mahatma Phule Technical High School,","Ground Floor, Room No.1 Bhoiwada, Mumbai-400012",Yes,Yes,Yes,19.0076677,72.8446052
"R. M. Bhatt High School,","Gokhale Society Lane, Ground Floor, Room No. 1, parel, Mumbai-400012",No,No,No,19.0039845,72.8404245
"Poybawadi Municipal Upper Primary Hindi School,","Ground Floor, Room No. 4, Parel, Mumbai-400012",No,Yes,Yes,19.0035047,72.84183879999999
"Shivadi Cross Road Upper Primary, Municipal Marathi School,","Ground Floor,Room No. 1, Shivadi, Mumbai-400015",No,Yes,Yes,18.9913485,72.8538394
"Maharashtra Institute of Labour Studies,","Ground Floor, Part-1, Parel, Mumbai-400012",Yes,Yes,No,19.0059503,72.83123239999999
Haffkin Institute Gymkhana hall (East),"Ground Floor, Parel, Mumbai-400012",No,No,No,19.0035047,72.84183879999999
B.P.T Warehouse,"Mandap  A  Open Ground Opposite B.P.T Warehouse,Haji Bunder Road,Gadi Adda, Shivadi Mumbai-400015",Yes,No,Yes,18.995234,72.853426
"Regional Plant Quarantine Station, Gate No.1","Semi Enclosed Space Mandap  A  in Regional Plant Quarantine Station, Gate No.1,Haji Bunder Road,Gadi Adda, Shivadi Mumbai-400015",No,No,No,18.9927051,72.8559863
"Regional Plant Quarantine Station, Gate No.2","Mandap  B  in Regional Plant Quarantine Station, Gate No.1,Haji Bunder Road,Gadi Adda, Shivadi Mumbai-400015",Yes,No,No,18.9927051,72.8559863
"Regional Plant Quarantine Station, Gate No.3","Mandap  C  in Regional Plant Quarantine Station Left Side of Gate No.2,Haji Bunder Road,Gadi Adda, Shivadi Mumbai-400015",Yes,Yes,Yes,18.9927051,72.8559863
"Regional Plant Quarantine Station, Gate No.4","Mandap  D  in Regional Plant Quarantine Station,Left Side of Gate No.2,,Haji Bunder Road,Gadi Adda, Shivadi Mumbai-400015",No,Yes,No,18.9927051,72.8559863
"G.M. Medical College Krida Bhavan,","(Gymkhana) Ground Floor, Hall-A, K.E.M. Hospital Compound, Parel, Mumbai-400012",No,No,No,18.9372326,72.8308473
"Central Railway, Boxing Hall,","Ground Floor, Right Side, Parel, Mumbai-400012",No,Yes,Yes,19.0035047,72.84183879999999
"Central Railway Table Tennis Hall,","Ground Floor, Parel, Mumbai-400012",Yes,No,No,19.0035047,72.84183879999999
"Baradevi Municipal Marathi Upper Primary School,","Basement Hall A, Parel, Mumbai-400012",No,Yes,No,19.0035047,72.84183879999999
Baradevi Municipal Marathi Upper Primary School,"open space of the front gate, Parel  Mumbai-400012",No,Yes,No,19.0035047,72.84183879999999
"Haffkin BioPharma Employees Union Sanchalit Balwadi,","Parel, Mumbai-400012",Yes,No,No,19.0035047,72.84183879999999
"Shivadi Kamgar Kalyan Kendra,","B.D.D. Chawl No. 13, Ground Floor, Hall-A, Shivadi, Mumbai-400015",No,No,Yes,19.0016323,72.81874169999999
"Prabhodhankar Thakare Kridangan Marg M. Lo. Pra. School,","Ground Floor, Room No.13, Shivadi, Mumbai-400015",No,No,Yes,18.9894122,72.85175509999999
"Dr. Shirodkar High School,","Ground Floor, Room No.6 Parel, Mumbai-400012",No,No,Yes,18.9893358,72.8441782
Prabhodhankar Thakare Kridangan Marg Mun Lo Pra School,"Prabhodhankar Thakare Kridangan Marg Mun Lo Pra School Hall   Ground Floor, Hall  A, Shivadi, Mumbai 400015",Yes,Yes,No,18.9924132,72.8547164
"MCGM Parking Building,","Ground Floor, Semi Enclosed Space-1,T.J Road, Near Celestia Tower,Opposite Navayug Industries, Shivadi, Mumbai-400015",No,Yes,No,18.9992787,72.85037919999999
Maharshi Dayanand College Compound,"In Maharshi Dayanand College Compound,Parel, Mumbai-400012",No,No,No,18.9985341,72.8409755
"Maharashtra Kamgar Kalyan Mandal,","Hall Shishu Sankar Shala-A, Shivadi Mumbai-400015",Yes,Yes,No,18.9924132,72.8547164
"Sir J.J.Bhai Parel Primary School,","Ground Floor, Jr. K.G. Class, Parel Mumbai-400012",No,Yes,Yes,19.0035047,72.84183879999999
"Mumbai Veterinary College,","Old Building Hostel, Ground Floor, Table Tenis Hall-A, Mumbai-400012",Yes,Yes,Yes,19.0759837,72.8776559
"Chandika Sansthan Municipal Marathi School,","Ground floor, Room No.5,Parel, Mumbai-400012",Yes,Yes,Yes,19.000156,72.847492
"Near Municipal Dispensary ground, currey road,","Mandap (a), Currey Road, Near Municipal Dispensary ground, currey road, Mumbai-400013",No,Yes,No,18.994402,72.83288999999999
"B.E.S.T. Colony,","Ground Floor, Shishu Vikas A, E Block, Parel, Mumbai-400012",Yes,Yes,No,18.996096,72.8421292
"Income Tax office, Piramal chamber","Piramal chamber, Tennis hall, Ground Floor, Lalbaug, Mumbai-400012",No,No,Yes,18.9908177,72.83825470000001
"Vankundre Shantaram Health Center and Clinic,","Room No.1, Vankundre Shantaram Health Center and Clinic, Rajkamal Marg, Paral, Mumbai-400012",No,Yes,Yes,18.9962891,72.8421554
"E Block B.E.S.T Colony, Parel","Mandap in Ground in Front of  E  Block B.E.S.T Colony, Parel, Mumbai-400012",No,Yes,No,18.9951538,72.8423166
Maharashtra High School,"Mandap A, in the open field behind the Maharashtra High School,Mumbai-400011",Yes,No,No,18.9938572,72.83162899999999
"Chandika Sansthan Municipal Marathi School, 12","Ground Floor, Room No-2, Mumbai-4000",No,Yes,No,19.0759837,72.8776559
"Adarsh Mahila Mandal ,","Best Kamgar Colony Beside Officers Quarters,Parel, Mumbai-400012",No,Yes,No,18.970723,72.833944
"B.E.S.T Colony N Block, Parel","Mandap  A  in Ground at Backside of B.E.S.T Colony  N  Block, Parel, Mumbai-400012",Yes,Yes,Yes,18.9951538,72.8423166
"B.E.S.T Colony,","Culture Shed, Semi Enclosed Space  A  Parel, Mumbai-400012",Yes,No,Yes,19.0035047,72.84183879999999
"M.C.G.M City Disaster Management Institute,","Art Gallery Ground Floor Hall Semi Enclosed Mandap  A , Beside B.E.S.T Colony, Parel, Mumbai-400012",Yes,Yes,No,18.9951538,72.8423166
"Triveni Sadan Upper Primary Municipal Marathi School,","1st Floor, Room No. 23, Currey Road, Mumbai-400012",No,No,Yes,18.9951706,72.8318647
"N.M Joshi Municipal Primary Marathi School No. 2,","Ground Floor Room No. 24, Mumbai-400011",No,No,No,18.9751929,72.84243099999999
"Abhyudaya Nagar Municipal Upper Primary Marathi School No. 2,","(West Side), Ground Floor, Room, No. 7, Kalachowki, Mumbai-400033",No,Yes,Yes,18.988909,72.84176459999999
"Ahilya Vidyamandir, Primary  Secondary School,","Building No.1, Ground Floor, Room No.1, Primary School Abhudayanagar, Kalachowki, Mumbai - 400033",No,No,Yes,18.9879913,72.844059
"Shree Sarvajanik Balmandir High School,","Building No.1, Ground Floor, Room No.1,Abhudayanagar, Kalachowki, Mumbai - 400033",No,Yes,No,18.9879913,72.844059
"BMC Maidan, adjacent to Zakaria Bandar Urdu Municipal School","Mandap A, BMC Maidan, adjacent to Zakaria Bandar Urdu Municipal School, Mumbai - 400015",No,Yes,Yes,18.9960872,72.8528356
Abhyudaya Nagar Samaj Mandir,"Hall-A, Kalachowki, Mumbai-400033",No,No,Yes,18.9901964,72.8430551
"Maharashtra Seva mandal Building,","Gymnasium, Ground Floor, Ganesh Galli, Lalbaug, Mumbai-400012",No,No,No,18.9893319,72.837868
"Lalbaug Upper Primary Municipal Marathi primary Municipal Marathi School No2,","Gr. Floor, Room No. 2, Lalbaug, Mumbai-400012",Yes,No,Yes,18.988351,72.839601
"Recreation Grounds, F South Division, Old Gas Company","Mandap A, Recreation Grounds, F South Division, Old Gas Company, Neighborhood of Anupam Building, Peru Compound, Lalbaug, Mumbai-400012",No,No,No,18.9908177,72.83825470000001
"N.M.K. Highschool, Abhyudaya Nagar,","Thokarasi Jivraj Marg, Ground Floor, Room No. 699, Kalachowki Mumbai-400033",Yes,No,Yes,18.9901964,72.8430551
Chhatrapati Shivaji Maharaj Maidan (hot pit),"Mandap A, Chhatrapati Shivaji Maharaj Maidan (hot pit), Lalbagh, Mumbai-400012",No,No,No,18.9908177,72.83825470000001
"Rajashri Shahu Vidyayalay,","Mogul House, Ground Floor, Room No. 20, N. M. Joshi Marg, Mumbai-400011",No,Yes,No,18.9927626,72.831305
"Abhyudaya Nagar Shivaji Vidyalay,","Ground Floor, (east Side) Room No..1, Kalachowki, Mumbai-400033",No,Yes,No,18.9883913,72.8389105
Maharashtra Kamgar Kalyan Mandal,"Maharashtra Kamgar Kalyan Mandal ,  In Ground of Shishu Vikas School, Mandap A Lalbaug, Mumbai 400012",No,Yes,Yes,18.9908177,72.83825470000001
Ahilyabai Primary School,"Ahilyabai Primary School, Building No.33, Ground Floor, Room no.1, Opp. Kalachowki Police Station, Kalachowki, Mumbai - 400033",Yes,Yes,No,18.9883913,72.8389105
"Maharashtra Workers Welfare Center,","Hall No.1, Maharashtra Workers Welfare Center, Dattaram Lad Marg, Kalachaki, Mumbai-12",No,No,Yes,18.9882414,72.8386373
"Kalachowki Maharashtra Kamgar Kalyan kendra,","Room No. 1, Kalachowki, Mumbai-400033",Yes,Yes,Yes,18.9883913,72.8389105
Cotton Exchange,"Hall-A, Cotton Exchange, Ground Floor Hall, Kalachowki, Mumbai-400033",No,No,Yes,18.9901964,72.8430551
"Central Labour Institute, Hall Partition-A","N.S.Mankikar Road, Sion (E) Mumbai 22",No,Yes,Yes,19.0492908,72.8660855
"Central Labour Institute, Hall Partition-B","Central Labour InstituteN.S.Mankikar Road, Sion (E) Mumbai-22",Yes,Yes,No,19.0490947,72.8671921
"Central Labour Institute, Hall Partition-C","N.S.Mankikar Road, Sion (E) Mumbai 22",No,Yes,No,19.0492908,72.8660855
Room No.1 Eklavya edu. Sadhana sanchalit Karmaveer Bhaurao Patil Marathi Medium School,"Ground Floor, Pratiksha Nagar, Sion Koliwada,Mumbai-22",Yes,No,Yes,19.0400233,72.8681383
"Room No.1, Peoples Welfare Society Highschool","Plot No.46, Scheme 6, Sion Mumbai",No,No,Yes,19.0287391,72.86103279999999
S.I.E.S. College Of Commerce and Economics Hall Partition - A,T. V. Chidambaram Marg Sion East Mumbai No. 22,No,No,Yes,19.0442307,72.8656255
Room No 2 Peoples Welfare Society Highschool,"Plot No.46, Scheme 6, Sion Mumbai",Yes,No,No,19.0287391,72.86103279999999
"Partition B, S.I.E.S. College Of Commerce and Economics",T. V. Chidambaram Marg Sion East Mumbai No. 22,Yes,No,No,19.0442307,72.8656255
Room No.2 Eklavya edu. Sadhana sanchalit Karmaveer Bhaurao Patil Marathi Medium School,"Ground Floor, Pratiksha Nagar, Sion Koliwada,Mumbai-22",No,Yes,No,19.0400233,72.8681383
Room No.3 Eklavya edu. Sadhana sanchalit Karmaveer Bhaurao Patil Marathi Medium School,"Ground Floor, Pratiksha Nagar, Sion Koliwada,Mumbai-22",Yes,Yes,Yes,19.0400233,72.8681383
Room No.4 Eklavya edu. Sadhana sanchalit Karmaveer Bhaurao Patil Marathi Medium School,"Ground Floor, Pratiksha Nagar, Sion Koliwada,Mumbai-22",Yes,Yes,Yes,19.0400233,72.8681383
Room No.5 Eklavya edu. Sadhana sanchalit Karmaveer Bhaurao Patil Marathi Medium School,"Ground Floor, Pratiksha Nagar, Sion Koliwada,Mumbai-22",No,No,Yes,19.0400233,72.8681383
Room No.7 Eklavya edu. Sadhana sanchalit Karmaveer Bhaurao Patil Marathi Medium School,"Ground Floor, Pratiksha Nagar, Sion Koliwada,Mumbai-22",No,Yes,No,19.0400233,72.8681383
"Hall Partition A, Eklavya edu. Sadhana sanchalit Karmaveer Bhaurao Patil Marathi Medium School","Ground Floor, Pratiksha Nagar, Sion Koliwada,Mumbai-22",Yes,No,No,19.0400233,72.8681383
"Hall Partition B, Eklavya edu. Sadhana sanchalit Karmaveer Bhaurao Patil Marathi Medium School","Ground Floor, Pratiksha Nagar, Sion Koliwada,Mumbai-22",No,No,No,19.0400233,72.8681383
Room No.159 Eklavya edu. Sadhana sanchalit Karmaveer Bhaurao Patil English Medium School,"Ground Floor, Pratiksha Nagar, Sion Koliwada,Mumbai-22",No,No,Yes,19.0400233,72.8681383
Room No.160 Eklavya edu. Sadhana sanchalit Karmaveer Bhaurao Patil English Medium School,"Ground Floor, Pratiksha Nagar, Sion Koliwada,Mumbai-22",No,Yes,Yes,19.0400233,72.8681383
Room No.161 Eklavya edu. Sadhana sanchalit Karmaveer Bhaurao Patil English Medium School,"Ground Floor, Pratiksha Nagar, Sion Koliwada,Mumbai-22",No,Yes,Yes,19.0400233,72.8681383
Room No. 162 Eklavya edu. Sadhana sanchalit Karmaveer Bhaurao Patil English Medium School,"Ground Floor, Pratiksha Nagar, Sion Koliwada,Mumbai-22",No,No,Yes,19.0400233,72.8681383
Room No.163 Eklavya edu. Sadhana sanchalit Karmaveer Bhaurao Patil English Medium School,"Ground Floor, Pratiksha Nagar, Sion Koliwada,Mumbai-22",Yes,No,No,19.0400233,72.8681383
Room No.166 Eklavya edu. Sadhana sanchalit Karmaveer Bhaurao Patil English Medium School,"Ground Floor, Pratiksha Nagar, Sion Koliwada,Mumbai-22",Yes,Yes,Yes,19.0400233,72.8681383
"Hall, Eklavya edu. Sadhana sanchalit Karmaveer Bhaurao Patil English Medium School","Ground Floor, Pratiksha Nagar, Sion Koliwada,Mumbai-22",Yes,No,Yes,19.0400233,72.8681383
"Balwadi Room No 1 Pratiksha Nagar School Complex, Municipal School No.1","Ground Floor, Near Ganpati Mandir, Pratiksha Nagar, Sion Koliwada, Mumbai-22",No,Yes,No,19.0400233,72.8681383
"Balwadi Room No 2 Pratiksha Nagar School Complex, Municipal School No.1","Ground Floor, Near Ganpati Mandir, Pratiksha Nagar, Sion Koliwada, Mumbai-22",Yes,No,No,19.0400233,72.8681383
"Partition A, Pratiksha Nagar School Complex, Municipal School No.1","Ground Floor, Near Ganpati Mandir, Pratiksha Nagar, Sion Koliwada, Mumbai-22",Yes,Yes,No,19.0400233,72.8681383
"Partition B, Pratiksha Nagar School Complex, Municipal School No.1","Ground Floor, Near Ganpati Mandir, Pratiksha Nagar, Sion Koliwada, Mumbai-22",Yes,No,No,19.0400233,72.8681383
"Partition C, Pratiksha Nagar School Complex, Municipal School No.1","Ground Floor, Near Ganpati Mandir, Pratiksha Nagar, Sion Koliwada, Mumbai-22",No,No,Yes,19.0400233,72.8681383
Sheth Beaumonte CHS Hall,"Sion Circle, near PVR Cinema, Sion East, Sion, Mumbai, 400022",Yes,No,Yes,19.0426184,72.8642233
BMC Garden Chowk,"Sion East, Sion, Mumbai, 400022",Yes,No,Yes,19.0351454,72.86631729999999
"S.K. Roy High School, Room No 1","Ground Floor,Kokari Agar,Antop Hill,Mumbai-37.",No,Yes,Yes,19.0347779,72.8700096
"S.K. Roy High School, Room No 2","Ground Floor,Kokari Agar,Antop Hill,Mumbai-37.",No,No,Yes,19.0347779,72.8700096
"S.K. Roy High School, Room No 3","Ground Floor,Kokari Agar,Antop Hill,Mumbai-37.",Yes,No,No,19.0347779,72.8700096
Priyadarshini Vidya Mandir Hall partition A,"Ground Floor, Kokri Agar, Antop Hill, Mumbai-37.",No,Yes,Yes,19.0327855,72.8683125
Altia Lodha New Cuffe Parade,"MMRDA colony, kokari agar, Antop hill, Mumbai 400037",Yes,No,Yes,19.036814,72.871723
Priyadarshini Vidya Mandir Hall partition B,"Ground Floor, Kokri Agar, Antop Hill, Mumbai-37.",No,No,Yes,19.0327855,72.8683125
"Sadhana Vidyalaya, S.S.Mandal, Primary And Secondary Training Center, Building, Ground Floor, Room No.1","Scheme No. 6, Road No.24, Sion (W), Mumbai-22",Yes,No,Yes,19.042837,72.861091
"Sardar Nagar No.1 Mun. Upper Primary School, Ground Floor, Room No.1","Sion Koliwada, Mumbai-22",No,No,Yes,19.0373073,72.8663868
"Sardar Nagar No.1 Mun. Upper Primary School, Ground Floor, Room No.2","Sion Koliwada, Mumbai-22",Yes,Yes,No,19.0373073,72.8663868
"Sardar Nagar No.1 Mun. Upper Primary School, Ground Floor, Room No.3","Sion Koliwada, Mumbai-22",Yes,No,No,19.0373073,72.8663868
"Sardar Nagar No.1 Mun. Upper Primary School, Ground Floor, Room No.4","Sion Koliwada, Mumbai-22",No,No,Yes,19.0373073,72.8663868
"Sardar Nagar No.1 Mun. Upper Primary School, Ground Floor, Room No.5","Sion Koliwada, Mumbai-22",Yes,Yes,Yes,19.0373073,72.8663868
"Sardar Nagar No.1 Mun. Upper Primary School, Ground Floor, Room No.6","Sion Koliwada, Mumbai-22",Yes,Yes,Yes,19.0373073,72.8663868
"Sardar Nagar No.1 Mun. Upper Primary School, Ground Floor, Room No.7","Sion Koliwada, Mumbai-22",No,No,Yes,19.0373073,72.8663868
"Sardar Nagar No.1 Mun. Upper Primary School, Ground Floor, Room No.8","Sion Koliwada, Mumbai-22",No,Yes,No,19.0373073,72.8663868
"Sardar Nagar No.1 Mun. Upper Primary School, Ground Floor, Room No.9","Sion Koliwada, Mumbai-22",No,Yes,No,19.0373073,72.8663868
"Sardar Nagar No.1 Mun. Upper Primary School, Ground Floor, Room No.10","Sion Koliwada, Mumbai-22",No,Yes,Yes,19.0373073,72.8663868
"Sardar Nagar No.1 Mun. Upper Primary School, Ground Floor, Hall 11","Sion Koliwada, Mumbai-22",Yes,No,No,19.0373073,72.8663868
"Sardar Nagar No.1 Mun. Upper Primary School, Ground Floor, Hall 12","Sion Koliwada, Mumbai-22",No,Yes,No,19.0373073,72.8663868
"Sardar Nagar No.1 Mun. Upper Primary School, Ground Floor, Hall 13","Sion Koliwada, Mumbai-22",No,Yes,No,19.0373073,72.8663868
Samaj Mandir Hall Partition-A,"Sion Koliwada, Mumbai-22",No,Yes,Yes,19.0373073,72.8663868
Samaj Mandir Hall Partition-B,"Sion Koliwada, Mumbai-22",Yes,Yes,No,19.0373073,72.8663868
Samaj Mandir Hall Partition-C,"Sion Koliwada, Mumbai-22",Yes,No,Yes,19.0373073,72.8663868
Samaj Mandir Hall Partition-D,"Sion Koliwada, Mumbai-22",No,No,No,19.0373073,72.8663868
Samaj Mandir Hall Partition-E,"Sion Koliwada, Mumbai-22",No,Yes,Yes,19.0373073,72.8663868
Samaj Mandir Hall Partition-F,"Sion Koliwada, Mumbai-22",No,Yes,Yes,19.0373073,72.8663868
Samaj Mandir Hall Partition-G,"Sion Koliwada, Mumbai-22",Yes,No,Yes,19.0373073,72.8663868
Samaj Mandir Hall Partition-H,"Sion Koliwada, Mumbai-22",No,No,Yes,19.0373073,72.8663868
Samaj Mandir Hall Partition-I,"Sion Koliwada, Mumbai-22",Yes,No,No,19.0373073,72.8663868
"Shri Vallabh Shikshan Sangeet Vidyalay,Grd Flr Hall","Scheme No.6, Road No. 24, Sion (W), Mumbai 22",No,Yes,Yes,19.042837,72.861091
"Dharmaprakash Shrinivas Highschool,Grd Flr, Room No.1","Scheme No.6, Road No.24, sion (W), Mumbai 22",Yes,Yes,Yes,19.042837,72.861091
Priyadarshini Vidya Mandir Hall partition D,"Ground Floor, Kokri Agar, Antop Hill, Mumbai-37.",No,No,Yes,19.0327855,72.8683125
Priyadarshini Room No.2,"opp. Priyadarshini vidyamandir,New Transit camp,Kokari Agar,Mumbai-37.",No,No,Yes,19.091449,72.834795
Priyadarshini vidyamandir,"Priyadarshini Room No.3, Grd Flr,opp. Priyadarshini vidyamandir,New Transit camp,Kokari Agar,Mumbai-37.",Yes,Yes,No,19.091449,72.834795
Sion Muncipal Secondary School,"Sion Mun. Secondary School, Grd Flr,Room No.1, PLOT No.174/175, Scheme No.6 ,Road No.28, Sion (E),Mumbai-22.",Yes,Yes,Yes,19.040987,72.864085
New Sion Mun. School,"New Sion Mun. School,Grd Flr, Room No.1, PLOT No.160/161, Scheme No.6, Road No.24, Sion (W),Mumbai-22.",No,Yes,No,19.042837,72.861091
Shri Gauridatta Mittal Vidyalaya,"Shri Gauridatta Mittal Vidyalay Hall A, Gr. floor, Plot No. 172/173, Scheme No. 6, Road no 28 b,Sion (E),Mumbai-22.",No,Yes,Yes,19.040987,72.864085
Karmavir Dadasaheb Gaikwad Nagar Hindi Mun. School,"Karmavir Dadasaheb Gaikwad Nagar Hindi Mun. School, Ground floor, Hall A, M.A.Road, Rawali Camp, Antop Hill, Mumbai 22",Yes,Yes,No,19.0355154,72.8668983
"Shri Chetumal Bulchand Muralidhar High School,Hall Partition- A","Comrade Harbanslal Marg, Sindhi Sewa Samiti Nagar, Mumbai No 37",No,No,No,19.0759837,72.8776559
"Shri Chetumal Bulchand Muralidhar High School,Hall Partition- B","Comrade Harbanslal Marg, Sindhi Sewa Samiti Nagar, Mumbai No 37",Yes,No,Yes,19.0759837,72.8776559
"Room - R-1,  V Block","Vidyalankar Dnyanpith Sanchalit  Vidyalankar Polytechnic  Wadala, Mumbai-37",No,Yes,No,19.0216798,72.8699477
room no r- 8 v block,vidyalankar dnypanpith sanchalit vidyalankar polytechice wadala mumbai 37,No,Yes,No,19.0216798,72.8699477
"Room - R-2,  V Block","Vidyalankar Dnyanpith Sanchalit  Vidyalankar Polytechnic  Wadala, Mumbai-37",Yes,Yes,Yes,19.0216798,72.8699477
"Room - R-3,  V Block","Vidyalankar Dnyanpith Sanchalit  Vidyalankar Polytechnic  Wadala, Mumbai-37.",Yes,Yes,Yes,19.0216798,72.8699477
Govt. of India Personal Public Greviences   pension Welfare Center,"Govt. of India Personal Public Greviences   pension Welfare Center, Room No. 1, Grd Floor,S.M.Road ,Sector 7,Antop Hill, Mumbai-37.",No,Yes,Yes,19.0449879,72.8598097
C.G.S. Employee School,"C.G.S. Employee School, Gr.Floor, Room No.6, Sector-7, S.M.Road, Antop Hill, Mumbai-37.",No,Yes,No,19.0314803,72.8709849
Gurunanak Tech. High school,"Gurunanak Tech. High school, Ground Floor, Room No.1, Rajyogi Bhai Jaymalsingh Marg, Rawali Camp, Mumbai-37.",No,No,Yes,19.0355154,72.8668983
"Trinity International School, Room No.1","Plot No. 247-248, Sion E, Mumbai, Maharashtra 400022",Yes,Yes,No,19.0318528,72.8597345
"Trinity International School, Room No.2","Plot No. 247-248, Sion E, Mumbai, Maharashtra 400022",Yes,Yes,Yes,19.0318528,72.8597345
"Trinity International School, Room No.3","Plot No. 247-248, Sion E, Mumbai, Maharashtra 400022",No,No,No,19.0318528,72.8597345
"Trinity International School, Room No.4","Plot No. 247-248, Sion E, Mumbai, Maharashtra 400022",Yes,Yes,No,19.0318528,72.8597345
"Trinity International School, Room No.5","Plot No. 247-248, Sion E, Mumbai, Maharashtra 400022",Yes,No,Yes,19.0318528,72.8597345
"Shree Sanatan Dharma Secondary School, Hall Partition- A","Gurucharansing Dardi Marg, Rawali Camp, Mumbai-37.",No,Yes,No,19.0355154,72.8668983
"Shree Sanatan Dharma Secondary School, Hall Partition- B","Gurucharansing Dardi Marg, Rawali Camp, Mumbai-37.",Yes,Yes,Yes,19.0355154,72.8668983
"Shree Sanatan Dharma Secondary School, Hall Partition- C","Gurucharansing Dardi Marg, Rawali Camp, Mumbai-37.",Yes,Yes,No,19.0355154,72.8668983
"Shree Sanatan Dharma Secondary School, Hall Partition- D","Gurucharansing Dardi Marg, Rawali Camp, Mumbai-37.",Yes,No,No,19.0355154,72.8668983
"Shree Sanatan Dharma Secondary School, Hall Partition- E","Gurucharansing Dardi Marg, Rawali Camp, Mumbai-37.",No,Yes,No,19.0355154,72.8668983
"Shree Sanatan Dharma Secondary School, Hall Partition- F","Gurucharansing Dardi Marg, Rawali Camp, Mumbai-37.",No,No,No,19.0355154,72.8668983
"Shree Sanatan Dharma Secondary School, Hall Partition- G","Gurucharansing Dardi Marg, Rawali Camp, Mumbai-37.",Yes,Yes,No,19.0355154,72.8668983
"Shree Sanatan Dharma Secondary School, Hall Partition- H","Gurucharansing Dardi Marg, Rawali Camp, Mumbai-37.",No,No,No,19.0355154,72.8668983
Little Angels High School,"Little Angels High School, Ground Floor Stilt,East Side Partition A,Shastri Gully, Vishramwadi,Sion(W), Mumbai-400022.",Yes,No,No,19.047248,72.85477879999999
Empty Space Wadala Fire Brigade Parking,"Pandol- A, Empty Space Near Wadala Fire Brigade,S.M.Road,Antop Hill, Mumbai-37.",No,Yes,No,19.0308216,72.8621136
Room No. 01  Kane Nagar Municipal School,"CGS Colony, Sector 3, Kane Nagar, Antop Hill, Mumbai, Maharashtra 400037",No,No,Yes,19.0308084,72.8622558
Pendol,"Empty Space  Wadala Fire Brigade Parking ,S.M.Road,Antop Hill, Mumbai-37",Yes,No,Yes,19.0248942,72.87027929999999
"Room - R-4,  V Block","Vidyalankar Dnyanpith Sanchalit  Vidyalankar Polytechnic  Wadala, Mumbai-37.",No,No,No,19.0216798,72.8699477
"Room - V-9,  V Block","Vidyalankar Dnyanpith Sanchalit  Vidyalankar Polytechnic  Wadala, Mumbai-37",Yes,No,Yes,19.0216798,72.8699477
"Room - V-12,  V Block","Vidyalankar Dnyanpith Sanchalit  Vidyalankar Polytechnic  Wadala, Mumbai-37",No,Yes,No,19.0216798,72.8699477
"Room - V-13,  V Block","Vidyalankar Dnyanpith Sanchalit  Vidyalankar Polytechnic  Wadala, Mumbai-37.",Yes,No,No,19.0216798,72.8699477
"Room - V-14,  V Block","Vidyalankar Dnyanpith Sanchalit  Vidyalankar Polytechnic  Wadala, Mumbai-37",Yes,Yes,No,19.0216798,72.8699477
"Room - W-1,  W Block","Vidyalankar Dnyanpith Sanchalit  Vidyalankar Polytechnic  Wadala, Mumbai-37",Yes,Yes,Yes,19.0216798,72.8699477
"C.G.S. Employee School, Gr.Floor, Room No.8","Sector-7, S.M.Road, Antop Hill, Mumbai-37",Yes,No,No,19.0314803,72.8709849
"C.G.S. Employee School, Gr.Floor, Room No.9","Sector-7, S.M.Road, Antop Hill, Mumbai-37",No,Yes,Yes,19.0314803,72.8709849
"C.G.S. Employee School, Gr.Floor, Room No.10","Sector-7, S.M.Road, Antop Hill, Mumbai-37",No,No,No,19.0314803,72.8709849
"C.G.S. Employee School,","C.G.S. Employee School, Gr.Floor, Balwadi Room, Sector-7, S.M.Road, Antop Hill, Mumbai-37.",Yes,Yes,No,19.0314803,72.8709849
"Partition A Govt. of India Personal Public Greviences And pension Welfare Center, Hall","S.M.Road ,Sector 7,Antop Hill, Mumbai-37",No,No,Yes,19.0314803,72.8709849
Nirmal Vidyalay,"Nirmal Vidyalay, Gr. Floor, Room No.1, Ganesh Nagar, Salt Pan Road,Wadala, Mumbai-37.",No,Yes,Yes,19.0183204,72.8696288
Shree Ganesh Vidyalay,"Shree Ganesh Vidyalay, Gr. Floor, Room No.1, Ganesh Nagar, Salt Pan Road, Wadala, Mumbai-37.",No,Yes,Yes,19.0183204,72.8696288
Kendriya Vidyalaya building,"Kendriya Vidyalaya building, Gr. Floor, Room No.1, S.M.Road, Antop Hill, Mumbai-37.",Yes,No,No,19.0322183,72.86938049999999
"Controller General of Platform Designs   Trade Mark,Baudhik Sampada Bhavan,","Pendol- A, In the Compound of Controller General of Platform Designs   Trade Mark, Baudhik Sampada Bhavan,S.M.Road,Antop Hill,Mumbai-400037.",No,Yes,Yes,19.0246092,72.8642287
"S.M.Road, Antop Hill","Adinath Co-op Hausing Soc. Office, Gr. Floor, S.M.Road, Antop Hill, Mumbai-37.",Yes,Yes,No,19.0308216,72.8621136
"Ground Floor, Room No.01 K.A.Subramaniam Road, Matunga, Mumbai-19","Ground Floor, Room No.01 K.A.Subramaniam Road, Matunga, Mumbai-19",No,No,No,19.0323862,72.8559286
"Ground Floor, Room No.03 K.A.Subramaniam Road, Matunga, Mumbai-19","Ground Floor, Room No.03 K.A.Subramaniam Road, Matunga, Mumbai-19",Yes,Yes,No,19.0323192,72.8560318
"Ground Floor, Room No.04 K.A.Subramaniam Road, Matunga, Mumbai-19","Ground Floor, Room No.04 K.A.Subramaniam Road, Matunga, Mumbai-19",No,Yes,No,19.0306008,72.8574497
"Ground Floor Hall, Partition - A Shradhanand Marg, Matunga (East), Mumbai-19","Ground Floor Hall, Partition - A Shradhanand Marg, Matunga (East), Mumbai-19",No,Yes,Yes,19.0292069,72.8541438
"Ground Floor Hall, Partition - B Shradhanand Marg, Matunga (East), Mumbai-19","Ground Floor Hall, Partition - B Shradhanand Marg, Matunga (East), Mumbai-19",No,Yes,Yes,19.0292069,72.8541438
", Ground Floor Varanda, Partition - A 304, Veera Heights, Bhimani Street, Matunga (E), Mumbai-19",", Ground Floor Varanda, Partition - A 304, Veera Heights, Bhimani Street, Matunga (E), Mumbai-19",No,No,Yes,19.0270242,72.8516573
"Ground Floor Varanda, Partition - B 304, Veera Heights, Bhimani Street, Matunga (E), Mumbai-19","Ground Floor Varanda, Partition - B 304, Veera Heights, Bhimani Street, Matunga (E), Mumbai-19",No,Yes,Yes,19.0270242,72.8516573
"Ground Floor, Open Passage, Pandal - A Bahu Daji Road, Near Maheshwari Circle, Matunga (East), Mumbai-19","Ground Floor, Open Passage, Pandal - A Bahu Daji Road, Near Maheshwari Circle, Matunga (East), Mumbai-19",Yes,No,Yes,19.031123,72.854501
"Ground Floor, Open Passage, Pandal- B Bahu Daji Road, Near Maheshwari Circle, Matunga (East), Mumbai-19","Ground Floor, Open Passage, Pandal- B Bahu Daji Road, Near Maheshwari Circle, Matunga (East), Mumbai-19",Yes,Yes,Yes,19.031123,72.854501
"Ground Floor, Open Passage, Pandal - C Bahu Daji Road, Near Maheshwari Circle, Matunga (East), Mumbai-19","Ground Floor, Open Passage, Pandal - C Bahu Daji Road, Near Maheshwari Circle, Matunga (East), Mumbai-19",Yes,No,Yes,19.031123,72.854501
"Ground Floor, Room No.1 Mahilashram Marg, Matunga (East), Mumbai-19","Ground Floor, Room No.1 Mahilashram Marg, Matunga (East), Mumbai-19",No,Yes,No,19.0293468,72.8562075
"Ground Floor, Room No.2 Mahilashram Marg, Matunga (East), Mumbai-19","Ground Floor, Room No.2 Mahilashram Marg, Matunga (East), Mumbai-19",Yes,No,No,19.0293468,72.8562075
"Ground Floor Open Passage Near Hall R.A.Kidwai Marg, Matunga, (East), Mumbai-19","Ground Floor Open Passage Near Hall R.A.Kidwai Marg, Matunga, (East), Mumbai-19",No,Yes,Yes,19.0281062,72.8593411
"Ground Floor Hall, Partition - A R.A.Kidwai Marg, Matunga, (East), Mumbai-19","Ground Floor Hall, Partition - A R.A.Kidwai Marg, Matunga, (East), Mumbai-19",No,No,No,19.0281062,72.8593411
", Ground Floor Hall, Partition - B R.A.Kidwai Marg, Matunga, (East), Mumbai-19",", Ground Floor Hall, Partition - B R.A.Kidwai Marg, Matunga, (East), Mumbai-19",No,No,No,19.0281062,72.8593411
"Ground Floor, Hall No. 1 Bhimani Street, Matunga (East), Mumbai-19","Ground Floor, Hall No. 1 Bhimani Street, Matunga (East), Mumbai-19",No,No,Yes,19.0265458,72.8521205
"Ground Floor, Hall No. 2 Bhimani Street, Matunga (East), Mumbai-19","Ground Floor, Hall No. 2 Bhimani Street, Matunga (East), Mumbai-19",No,Yes,No,19.0265458,72.8521205
"Annex Building, Room No. G2 Nathalal Parekh Marg, Matunga (East), Mumbai-19","Annex Building, Room No. G2 Nathalal Parekh Marg, Matunga (East), Mumbai-19",No,No,No,19.025247,72.857299
"Annex Building, Room No. G3 Nathalal Parekh Marg, Matunga (East), Mumbai-19","Annex Building, Room No. G3 Nathalal Parekh Marg, Matunga (East), Mumbai-19",No,Yes,No,19.025247,72.857299
"Ground Floor, Room No.-G-4 L.N. Road, Matunga (East), Mumbai-19","Ground Floor, Room No.-G-4 L.N. Road, Matunga (East), Mumbai-19",Yes,No,Yes,19.011309,72.8445917
"Ground Floor, Multi Purpose Hall L.N. Road, Matunga (East), Mumbai-19","Ground Floor, Multi Purpose Hall L.N. Road, Matunga (East), Mumbai-19",No,No,No,19.011309,72.8445917
"Ground Floor, Room No. G-5 L.N. Road, Matunga (East), Mumbai-19","Ground Floor, Room No. G-5 L.N. Road, Matunga (East), Mumbai-19",No,Yes,Yes,19.0096462,72.84367739999999
"Ground Floor, Room No. G-6 L.N. Road, Matunga (East), Mumbai-19","Ground Floor, Room No. G-6 L.N. Road, Matunga (East), Mumbai-19",Yes,Yes,Yes,19.0113082,72.8445931
"Ground Floor, Room No. G-7 L.N. Road, Matunga (East), Mumbai-19","Ground Floor, Room No. G-7 L.N. Road, Matunga (East), Mumbai-19",Yes,No,No,19.0097971,72.8437035
"Ground Floor, Room No.8 Plan -57 Road No.-7A, (Shiwadi Wadala), Wadala (West), Mumbai-31","Ground Floor, Room No.8 Plan -57 Road No.-7A, (Shiwadi Wadala), Wadala (West), Mumbai-31",No,No,No,19.0164103,72.855261
"Ground Floor, Room No.9 Plan -57 Road No.-7A, (Shiwadi Wadala), Wadala (West), Mumbai-31","Ground Floor, Room No.9 Plan -57 Road No.-7A, (Shiwadi Wadala), Wadala (West), Mumbai-31",Yes,Yes,No,19.0164103,72.855261
"Ground Floor, Room No.10 Plan -57 Road No.-7A, (Shiwadi Wadala), Wadala (West), Mumbai-31","Ground Floor, Room No.10 Plan -57 Road No.-7A, (Shiwadi Wadala), Wadala (West), Mumbai-31",No,Yes,Yes,19.0164103,72.855261
"Ground Floor, Room No. 2 S.M. Road, Bharni Naka, Antop Hill  Wadala (E), Mumbai-37","Ground Floor, Room No. 2 S.M. Road, Bharni Naka, Antop Hill  Wadala (E), Mumbai-37",No,Yes,No,19.0327947,72.8682881
"Ground Floor, Room No. 1 Dosti Acres Complex, Shaikh Mistry Road, Antop Hill, Wadala (E), Mumbai - 37","Ground Floor, Room No. 1 Dosti Acres Complex, Shaikh Mistry Road, Antop Hill, Wadala (E), Mumbai - 37",No,No,Yes,19.023063,72.866321
"Ground Floor, Room No.1 Plan -57, Road No. 9, (Shiwadi Wadala), Wadala (West), Mumbai-31","Ground Floor, Room No.1 Plan -57, Road No. 9, (Shiwadi Wadala), Wadala (West), Mumbai-31",Yes,Yes,Yes,19.0144292,72.8617798
"Ground Floor, Room No.2 Plan -57 Road No.-7A, (Shiwadi Wadala), Wadala (West), Mumbai-31","Ground Floor, Room No.2 Plan -57 Road No.-7A, (Shiwadi Wadala), Wadala (West), Mumbai-31",No,No,Yes,19.0164103,72.855261
"Radio Hall, Ground Floor Plan -57 Road No.-7A, (Shiwadi Wadala), Wadala (West), Mumbai-31","Radio Hall, Ground Floor Plan -57 Road No.-7A, (Shiwadi Wadala), Wadala (West), Mumbai-31",Yes,No,Yes,19.0164103,72.855261
"Ground Floor, Lecture Room No. AL-02 H.R.Mahajani Marg, Matunga (East), Mumbai-19","Ground Floor, Lecture Room No. AL-02 H.R.Mahajani Marg, Matunga (East), Mumbai-19",Yes,No,Yes,19.0203329,72.8550441
"Ground Floor, Lecture Room No. AL-03 H.R.Mahajani Marg, Matunga (East), Mumbai-19","Ground Floor, Lecture Room No. AL-03 H.R.Mahajani Marg, Matunga (East), Mumbai-19",No,No,Yes,19.0215472,72.8548065
"Ground Floor, Lecture Room No. AL-04 H.R.Mahajani Marg, Matunga (East), Mumbai-19","Ground Floor, Lecture Room No. AL-04 H.R.Mahajani Marg, Matunga (East), Mumbai-19",Yes,Yes,No,19.0203329,72.8550441
"Ground Floor, Room No. 1 Mancherji Joshi Marg, Dadar East, Mumbai  14","Ground Floor, Room No. 1 Mancherji Joshi Marg, Dadar East, Mumbai  14",No,Yes,Yes,19.0188866,72.8516263
"Ground Floor, Room No. 2 S.M. Road, Bharni Naka, Antop Hill   Wadala (E), Mumbai-37","Ground Floor, Room No. 2 S.M. Road, Bharni Naka, Antop Hill   Wadala (E), Mumbai-37",Yes,Yes,Yes,19.0327947,72.8682881
"Ground Floor, Room No. 3 Mancherji Joshi Marg, Dadar (East), Mumbai - 14","Ground Floor, Room No. 3 Mancherji Joshi Marg, Dadar (East), Mumbai - 14",No,No,Yes,19.0188866,72.8516263
"Ground Floor, Room No. 1 Lakhamshi Nappu Road, Dadar (East), Mumbai -14","Ground Floor, Room No. 1 Lakhamshi Nappu Road, Dadar (East), Mumbai -14",No,No,No,19.0099129,72.8426858
"Ground Floor, Room No. 2 Lakhamshi Nappu Road, Dadar (East), Mumbai -14","Ground Floor, Room No. 2 Lakhamshi Nappu Road, Dadar (East), Mumbai -14",No,No,No,19.0099129,72.8426858
"Ground Floor, Room No. 3 Lakhamshi Nappu Road, Dadar (East), Mumbai -14","Ground Floor, Room No. 3 Lakhamshi Nappu Road, Dadar (East), Mumbai -14",No,No,Yes,19.0099129,72.8426858
"Ground Floor, Room No. 4 Lakhamshi Nappu Road, Dadar (East), Mumbai -14","Ground Floor, Room No. 4 Lakhamshi Nappu Road, Dadar (East), Mumbai -14",Yes,No,Yes,19.0099129,72.8426858
"Ground Floor, Room No. 5 Lakhamshi Nappu Road, Dadar (East), Mumbai -14","Ground Floor, Room No. 5 Lakhamshi Nappu Road, Dadar (East), Mumbai -14",No,No,Yes,19.000156,72.847492
"Ground Floor, Room No. 1 Sir Bhalchandra Road, Dadar (East), Mumbai - 14","Ground Floor, Room No. 1 Sir Bhalchandra Road, Dadar (East), Mumbai - 14",No,No,Yes,19.0169869,72.8457813
"Ground Floor, Room No. 2 Sir Bhalchandra Road, Dadar (East), Mumbai - 14","Ground Floor, Room No. 2 Sir Bhalchandra Road, Dadar (East), Mumbai - 14",Yes,Yes,No,19.0171,72.84559999999999
"Ground Floor, Room No.1 Rafi Ahmed Kidwai Marg (W.), Wadala (West), Mumbai-31","Ground Floor, Room No.1 Rafi Ahmed Kidwai Marg (W.), Wadala (West), Mumbai-31",Yes,Yes,No,19.0152,72.8563999
"Ground Floor, Room No.2 Rafi Ahmed Kidwai Marg (W.), Wadala (West), Mumbai-31","Ground Floor, Room No.2 Rafi Ahmed Kidwai Marg (W.), Wadala (West), Mumbai-31",No,No,No,19.015111,72.857381
"Ground Floor, Room No.3 Rafi Ahmed Kidwai Marg (W.), Wadala (West), Mumbai-31","Ground Floor, Room No.3 Rafi Ahmed Kidwai Marg (W.), Wadala (West), Mumbai-31",No,Yes,No,19.0150292,72.8572387
"Ground Floor Hall Partition - A Dosti Acres Complex, Shaikh Mistry Road, Antop Hill, Wadala (E), Mumbai - 37","Ground Floor Hall Partition - A Dosti Acres Complex, Shaikh Mistry Road, Antop Hill, Wadala (E), Mumbai - 37",Yes,Yes,Yes,19.0248317,72.8638893
"Ground Floor, Car Parking Partition - A Barkat Ali Darga Marg, Near Balaji Temple, Wadala (East), Mumbai - 37","Ground Floor, Car Parking Partition - A Barkat Ali Darga Marg, Near Balaji Temple, Wadala (East), Mumbai - 37",Yes,Yes,Yes,19.0180913,72.864638
"Banquet Hall Partition- A S.M. Road, Bharni Naka, Antop Hill, Wadala (E), Mumbai-37","Banquet Hall Partition- A S.M. Road, Bharni Naka, Antop Hill, Wadala (E), Mumbai-37",Yes,Yes,Yes,19.0146264,72.86194309999999
"Banquet Hall Partition- B S.M. Road, Bharni Naka, Antop Hill, Wadala (E), Mumbai-37","Banquet Hall Partition- B S.M. Road, Bharni Naka, Antop Hill, Wadala (E), Mumbai-37",Yes,Yes,No,19.0146264,72.86194309999999
"Ground Floor, Room No. 4 S.M. Road, Bharni Naka, Antop Hill, Wadala (E), Mumbai-37","Ground Floor, Room No. 4 S.M. Road, Bharni Naka, Antop Hill, Wadala (E), Mumbai-37",No,No,No,19.03249,72.867014
"Ground Floor, Car Parking Partition - C Barkat Ali Darga Marg, Near Balaji Temple, Wadala (East), Mumbai - 37","Ground Floor, Car Parking Partition - C Barkat Ali Darga Marg, Near Balaji Temple, Wadala (East), Mumbai - 37",No,Yes,No,19.0180913,72.864638
"Ground Floor, Room No. 1 S.M. Road, Bharni Naka, Antop Hill, Wadala (E), Mumbai-37","Ground Floor, Room No. 1 S.M. Road, Bharni Naka, Antop Hill, Wadala (E), Mumbai-37",Yes,No,No,19.0322183,72.86938049999999
"Ground Floor, Car Parking Partition - B Barkat Ali Darga Marg, Near Balaji Temple, Wadala (East), Mumbai - 37","Ground Floor, Car Parking Partition - B Barkat Ali Darga Marg, Near Balaji Temple, Wadala (East), Mumbai - 37",No,No,Yes,19.0180913,72.864638
"Ground Floor, Car Parking Partition - E Barkat Ali Darga Marg, Near Balaji Temple, Wadala (East), Mumbai - 37","Ground Floor, Car Parking Partition - E Barkat Ali Darga Marg, Near Balaji Temple, Wadala (East), Mumbai - 37",No,No,No,19.0180913,72.864638
"Ground Floor, Car Parking Partition - F Barkat Ali Darga Marg, Near Balaji Temple, Wadala (East), Mumbai - 37","Ground Floor, Car Parking Partition - F Barkat Ali Darga Marg, Near Balaji Temple, Wadala (East), Mumbai - 37",Yes,No,No,19.0180913,72.864638
"Ground Floor, Room No. 1 Nathalal Parekh Marg, Wadala (West), Mumbai - 37","Ground Floor, Room No. 1 Nathalal Parekh Marg, Wadala (West), Mumbai - 37",Yes,Yes,No,19.0260958,72.8568494
"Ground Floor, Room No. 2 Nathalal Parekh Marg, Wadala (West), Mumbai - 37","Ground Floor, Room No. 2 Nathalal Parekh Marg, Wadala (West), Mumbai - 37",No,Yes,No,19.0232166,72.856933
"Ground Floor, Room No. 3 Nathalal Parekh Marg, Wadala (West), Mumbai - 37","Ground Floor, Room No. 3 Nathalal Parekh Marg, Wadala (West), Mumbai - 37",No,No,Yes,19.0268771,72.8567946
"Ground Floor, Room No. 4 Mancherji Joshi Marg, Dadar (East), Mumbai - 14","Ground Floor, Room No. 4 Mancherji Joshi Marg, Dadar (East), Mumbai - 14",No,No,No,19.0188866,72.8516263
"Ground Floor, Room No.4 Rafi Ahmed Kidwai Marg (W.), Wadala (West), Mumbai-31","Ground Floor, Room No.4 Rafi Ahmed Kidwai Marg (W.), Wadala (West), Mumbai-31",No,No,Yes,19.0165906,72.8587983
"Ground Floor, Room No.5 Rafi Ahmed Kidwai Marg (W.), Wadala (West), Mumbai-31","Ground Floor, Room No.5 Rafi Ahmed Kidwai Marg (W.), Wadala (West), Mumbai-31",Yes,No,Yes,19.014873,72.85713299999999
"Play Ground, Pandal - 1 Plan -57 Road No.19 (Shiwadi Wadala), Wadala (West), Mumbai-31","Play Ground, Pandal - 1 Plan -57 Road No.19 (Shiwadi Wadala), Wadala (West), Mumbai-31",Yes,Yes,Yes,19.0173016,72.8566862
"Play Ground, Pandal - 2 Plan -57 Road No.19 (Shiwadi Wadala), Wadala (West), Mumbai-31","Play Ground, Pandal - 2 Plan -57 Road No.19 (Shiwadi Wadala), Wadala (West), Mumbai-31",Yes,No,No,19.0173016,72.8566862
"Play Ground, Pandal - 3 Plan -57 Road No.19 (Shiwadi Wadala), Wadala (West), Mumbai-31","Play Ground, Pandal - 3 Plan -57 Road No.19 (Shiwadi Wadala), Wadala (West), Mumbai-31",Yes,No,No,19.0173016,72.8566862
"Ground Floor, Room No. 1 Nadkarni Park (New) Colony, Wadala (East), Mumbai - 37","Ground Floor, Room No. 1 Nadkarni Park (New) Colony, Wadala (East), Mumbai - 37",No,Yes,Yes,19.0153992,72.8626251
"Ground Floor, Room No. 2 Nadkarni Park (New) Colony, Wadala (East), Mumbai - 37","Ground Floor, Room No. 2 Nadkarni Park (New) Colony, Wadala (East), Mumbai - 37",Yes,No,Yes,19.0153992,72.8626251
"Ground Floor, Hall Partition - B Dosti Acres Complex, Shaikh Mistry Road, Antop Hill, Wadala (E), Mumbai - 37","Ground Floor, Hall Partition - B Dosti Acres Complex, Shaikh Mistry Road, Antop Hill, Wadala (E), Mumbai - 37",No,Yes,Yes,19.0248317,72.8638893
"Ground Floor, Room No.3 Nadkarni Park (New) Colony, Wadala (East), Mumbai - 37","Ground Floor, Room No.3 Nadkarni Park (New) Colony, Wadala (East), Mumbai - 37",No,Yes,No,19.0153992,72.8626251
"Ground Floor, Room No. 4 Nadkarni Park (New) Colony, Wadala (East), Mumbai - 37","Ground Floor, Room No. 4 Nadkarni Park (New) Colony, Wadala (East), Mumbai - 37",Yes,No,No,19.0153992,72.8626251
"Ground Floor, Hall Nadkarni Park (New) Colony, Wadala (East), Mumbai-37","Ground Floor, Hall Nadkarni Park (New) Colony, Wadala (East), Mumbai-37",No,Yes,Yes,19.0153992,72.8626251
"Ground Floor, Room No 1 Plan 32 (Shiwadi-Wadala), Jain Darasar Marg, Wadala (West), Mumbai -31","Ground Floor, Room No 1 Plan 32 (Shiwadi-Wadala), Jain Darasar Marg, Wadala (West), Mumbai -31",Yes,No,No,19.0164103,72.855261
"Ground Floor, Room No 2 Plan 32 (Shiwadi-Wadala), Jain Darasar Marg, Wadala (West), Mumbai -31","Ground Floor, Room No 2 Plan 32 (Shiwadi-Wadala), Jain Darasar Marg, Wadala (West), Mumbai -31",Yes,No,Yes,19.0164103,72.855261
"First Floor, Room No 3 Plan 32 (Shiwadi-Wadala), Jain Darasar Marg, Wadala (West), Mumbai -31","First Floor, Room No 3 Plan 32 (Shiwadi-Wadala), Jain Darasar Marg, Wadala (West), Mumbai -31",Yes,Yes,Yes,19.0164103,72.855261
"Ground Floor, Room No 4 Plan 32 (Shiwadi-Wadala), Jain Darasar Marg, Wadala (West), Mumbai-31","Ground Floor, Room No 4 Plan 32 (Shiwadi-Wadala), Jain Darasar Marg, Wadala (West), Mumbai-31",No,Yes,No,19.0164103,72.855261
"Ground Floor, Room No.1 Rafi Ahmed Kidwai Road (E) (Shiwadi-Wadala), Shiwadi, Mumbai-15","Ground Floor, Room No.1 Rafi Ahmed Kidwai Road (E) (Shiwadi-Wadala), Shiwadi, Mumbai-15",Yes,Yes,Yes,19.0132232,72.8546467
"Ground Floor Hall, Partition - A Lokmanya Tilak Colony Lane No.-2, Dadar (East), Mumbai 14","Ground Floor Hall, Partition - A Lokmanya Tilak Colony Lane No.-2, Dadar (East), Mumbai 14",No,Yes,Yes,19.0180245,72.84490140000001
"Ground Floor Hall, Partition - B Lokmanya Tilak Colony Lane No.-2, Dadar (East), Mumbai 14","Ground Floor Hall, Partition - B Lokmanya Tilak Colony Lane No.-2, Dadar (East), Mumbai 14",No,Yes,No,19.0180245,72.84490140000001
"Ground Floor Hall, Partition - C Lokmanya Tilak Colony Road No.-2, Dadar (East), Mumbai 14","Ground Floor Hall, Partition - C Lokmanya Tilak Colony Road No.-2, Dadar (East), Mumbai 14",No,Yes,No,19.0192599,72.8472247
"Open Stage, Partition - A Sir Bhalchandra Road, Dadar (East), Mumbai - 14","Open Stage, Partition - A Sir Bhalchandra Road, Dadar (East), Mumbai - 14",Yes,No,Yes,19.0199237,72.8479457
"Open Stage, Partition - B Sir Bhalchandra Road, Dadar (East), Mumbai - 14","Open Stage, Partition - B Sir Bhalchandra Road, Dadar (East), Mumbai - 14",No,Yes,Yes,19.0199237,72.8479457
"Koraba Mithagar Municiple Marathi School, Ground Floor, Room No.- 1 Baba Barkat Ali Dargah Marg(E.), Opposite Wadala Police Station, Wadala (East), Mumbai -37","Koraba Mithagar Municiple Marathi School, Ground Floor, Room No.- 1 Baba Barkat Ali Dargah Marg(E.), Opposite Wadala Police Station, Wadala (East), Mumbai -37",Yes,Yes,No,19.015996,72.864299
"Koraba Mithagar Municiple Marathi School, Ground Floor, Room No. 2 Baba Barkat Ali Dargah Marg(E.), Opposite Wadala Police Station, Wadala (East), Mumbai -37","Koraba Mithagar Municiple Marathi School, Ground Floor, Room No. 2 Baba Barkat Ali Dargah Marg(E.), Opposite Wadala Police Station, Wadala (East), Mumbai -37",No,Yes,Yes,19.015996,72.864299
"Koraba Mithagar Municiple Marathi School, Ground Floor, Room No. 3 Baba Barkat Ali Dargah Marg(E.), Opposite Wadala Police Station, Wadala (East), Mumbai -37","Koraba Mithagar Municiple Marathi School, Ground Floor, Room No. 3 Baba Barkat Ali Dargah Marg(E.), Opposite Wadala Police Station, Wadala (East), Mumbai -37",Yes,No,Yes,19.015996,72.864299
"Koraba Mithagar Municiple Marathi School, Ground Floor, Room No. 4","Koraba Mithagar Municiple Marathi School, Ground Floor, Room No. 4",No,Yes,No,19.0136868,72.86539429999999
"Koraba Mithagar Municiple Marathi School, Ground Floor, Room No. 5 Baba Barkat Ali Dargah Marg(E.), Opposite Wadala Police Station, Wadala (East), Mumbai -37","Koraba Mithagar Municiple Marathi School, Ground Floor, Room No. 5 Baba Barkat Ali Dargah Marg(E.), Opposite Wadala Police Station, Wadala (East), Mumbai -37",Yes,No,Yes,19.0136868,72.86539429999999
"Koraba Mithagar Municiple Marathi School, Ground Floor, Room No. 6","Koraba Mithagar Municiple Marathi School, Ground Floor, Room No. 6",No,Yes,Yes,19.0136868,72.86539429999999
"Koraba Mithagar Municiple Marathi School, Ground Floor, Room No. 7 Baba Barkat Ali Dargah Marg(E.), Opposite Wadala Police Station, Wadala (East), Mumbai -37","Koraba Mithagar Municiple Marathi School, Ground Floor, Room No. 7 Baba Barkat Ali Dargah Marg(E.), Opposite Wadala Police Station, Wadala (East), Mumbai -37",No,No,Yes,19.015996,72.864299
"Koraba Mithagar Municiple Marathi School, Ground Floor, Room No. 8 Baba Barkat Ali Dargah Marg(E.), Opposite Wadala Police Station, Wadala (East), Mumbai -37","Koraba Mithagar Municiple Marathi School, Ground Floor, Room No. 8 Baba Barkat Ali Dargah Marg(E.), Opposite Wadala Police Station, Wadala (East), Mumbai -37",No,No,No,19.015996,72.864299
"Koraba Mithagar Municiple Marathi School, Ground Floor, Room No. 9 Baba Barkat Ali Dargah Marg(E.), Opposite Wadala Police Station, Wadala (East), Mumbai -37","Koraba Mithagar Municiple Marathi School, Ground Floor, Room No. 9 Baba Barkat Ali Dargah Marg(E.), Opposite Wadala Police Station, Wadala (East), Mumbai -37",No,No,Yes,19.015996,72.864299
"Koraba Mithagar Municiple Marathi School, Ground Floor, Room No. 10 Baba Barkat Ali Dargah Marg(E.), Opposite Wadala Police Station, Wadala (East), Mumbai -37","Koraba Mithagar Municiple Marathi School, Ground Floor, Room No. 10 Baba Barkat Ali Dargah Marg(E.), Opposite Wadala Police Station, Wadala (East), Mumbai -37",Yes,Yes,No,19.0136868,72.86539429999999
"Koraba Mithagar Municiple Hindi School, Ground Floor, Room No. 1 Baba Barkat Ali Dargah Marg(E.), Opposite Wadala Police Station, Wadala (East), Mumbai -37","Koraba Mithagar Municiple Hindi School, Ground Floor, Room No. 1 Baba Barkat Ali Dargah Marg(E.), Opposite Wadala Police Station, Wadala (East), Mumbai -37",No,Yes,Yes,19.0136868,72.86539429999999
"Koraba Mithagar Municiple Hindi School,Ground Floor, Room No. 2 Baba Barkat Ali Dargah Marg(E.), Opposite Wadala Police Station, Wadala (East), Mumbai -37","Koraba Mithagar Municiple Hindi School,Ground Floor, Room No. 2 Baba Barkat Ali Dargah Marg(E.), Opposite Wadala Police Station, Wadala (East), Mumbai -37",No,No,No,19.0136868,72.86539429999999
"First Floor, Room No. 1 Reynolds Marg, Tejas Nagar, Wadala (East), Mumbai-37","First Floor, Room No. 1 Reynolds Marg, Tejas Nagar, Wadala (East), Mumbai-37",Yes,Yes,No,19.0066737,72.855508
"Ground Floor Hall, Partition - A Raynolds Marg, Tejas Nagar, Wadala (East), Mumbai-37","Ground Floor Hall, Partition - A Raynolds Marg, Tejas Nagar, Wadala (East), Mumbai-37",Yes,Yes,No,19.012105,72.8581943
"Ground Floor Hall, Partition - B Raynolds Marg, Tejas Nagar, Wadala (East), Mumbai-37","Ground Floor Hall, Partition - B Raynolds Marg, Tejas Nagar, Wadala (East), Mumbai-37",Yes,Yes,Yes,19.012105,72.8581943
"Ground Floor Hall, Partition - C Raynolds Marg, Tejas Nagar, Wadala (East), Mumbai-37","Ground Floor Hall, Partition - C Raynolds Marg, Tejas Nagar, Wadala (East), Mumbai-37",Yes,No,No,19.012105,72.8581943
"Ground Floor, Room No.-1 Plan 57 Road No.37, Tilak Road, Opposite Wadala Bus Depot., Wadala (West), Mumbai-31","Ground Floor, Room No.-1 Plan 57 Road No.37, Tilak Road, Opposite Wadala Bus Depot., Wadala (West), Mumbai-31",Yes,No,No,19.0134302,72.8540881
"Ground Floor, Hall Partition - A Plan 57 Road No.37, Tilak Road, Opposite Wadala Bus Depot., Wadala (West), Mumbai-31","Ground Floor, Hall Partition - A Plan 57 Road No.37, Tilak Road, Opposite Wadala Bus Depot., Wadala (West), Mumbai-31",No,No,Yes,19.0134302,72.8540881
"Ground Floor, Hall Partition - B Plan 57 Road No.37, Tilak Road, Opposite Wadala Bus Depot., Wadala (West), Mumbai-31","Ground Floor, Hall Partition - B Plan 57 Road No.37, Tilak Road, Opposite Wadala Bus Depot., Wadala (West), Mumbai-31",No,No,No,19.0134302,72.8540881
"Play Ground Pandal - 1 Plan 57 Road No.37, Tilak Road, Opposite Wadala Bus Depot., Wadala (West), Mumbai-31","Play Ground Pandal - 1 Plan 57 Road No.37, Tilak Road, Opposite Wadala Bus Depot., Wadala (West), Mumbai-31",No,Yes,Yes,19.0134302,72.8540881
"Play Ground Pandal - 2 Plan 57 Road No.37, Tilak Road, Opposite Wadala Bus Depot., Wadala (West), Mumbai-31","Play Ground Pandal - 2 Plan 57 Road No.37, Tilak Road, Opposite Wadala Bus Depot., Wadala (West), Mumbai-31",No,Yes,No,19.0134302,72.8540881
"Play Ground Pandal-3 Plan 57 Road No.37, Tilak Road, Opposite Wadala Bus Depot., Wadala (West), Mumbai-31","Play Ground Pandal-3 Plan 57 Road No.37, Tilak Road, Opposite Wadala Bus Depot., Wadala (West), Mumbai-31",No,No,Yes,19.0134302,72.8540881
"Play Ground Pandal - 4 Plan 57 Road No.37, Tilak Road, Opposite Wadala Bus Depot., Wadala (West), Mumbai-31","Play Ground Pandal - 4 Plan 57 Road No.37, Tilak Road, Opposite Wadala Bus Depot., Wadala (West), Mumbai-31",Yes,Yes,No,19.0134302,72.8540881
"Play Ground Pandal - 5 Plan 57 Road No.37, Tilak Road, Opposite Wadala Bus Depot., Wadala (West), Mumbai-31","Play Ground Pandal - 5 Plan 57 Road No.37, Tilak Road, Opposite Wadala Bus Depot., Wadala (West), Mumbai-31",No,Yes,Yes,19.0134302,72.8540881
"Ground Floor, Room No.-1 Rafi Ahmed Kidwai Marg (E.), Azad Nagar Complex, Wadala (East), Mumbai-31","Ground Floor, Room No.-1 Rafi Ahmed Kidwai Marg (E.), Azad Nagar Complex, Wadala (East), Mumbai-31",Yes,Yes,No,19.0132123,72.8558913
"Ground Floor, Room No.-2 Rafi Ahmed Kidwai Marg (E.), Azad Nagar Complex, Wadala (East), Mumbai-31","Ground Floor, Room No.-2 Rafi Ahmed Kidwai Marg (E.), Azad Nagar Complex, Wadala (East), Mumbai-31",No,No,Yes,19.015111,72.857381
"Ground Floor, Room No.-3 Rafi Ahmed Kidwai Marg (E.), Azad Nagar Complex, Wadala (East), Mumbai-31","Ground Floor, Room No.-3 Rafi Ahmed Kidwai Marg (E.), Azad Nagar Complex, Wadala (East), Mumbai-31",No,Yes,No,19.0150292,72.8572387
"Ground Floor, Room No.- 4 Rafi Ahmed Kidwai Marg (E.), Azad Nagar Complex, Wadala (East), Mumbai-31","Ground Floor, Room No.- 4 Rafi Ahmed Kidwai Marg (E.), Azad Nagar Complex, Wadala (East), Mumbai-31",No,No,No,19.0165906,72.8587983
"Ground Floor, Room No. 5 Rafi Ahmed Kidwai Marg (E.), Azad Nagar Complex, Wadala (East), Mumbai-31","Ground Floor, Room No. 5 Rafi Ahmed Kidwai Marg (E.), Azad Nagar Complex, Wadala (East), Mumbai-31",Yes,No,Yes,19.0138,72.855828
"Ground Floor Hall Partition - A Dr. Bhavani Shankar Dadarkar Road, Dadar (West), Mumbai- 28","Ground Floor Hall Partition - A Dr. Bhavani Shankar Dadarkar Road, Dadar (West), Mumbai- 28",Yes,No,No,19.0179304,72.8385771
"Ground Floor Hall Partition - B Dr. Bhavani Shankar Dadarkar Road, Dadar (West), Mumbai- 28","Ground Floor Hall Partition - B Dr. Bhavani Shankar Dadarkar Road, Dadar (West), Mumbai- 28",Yes,Yes,Yes,19.0179304,72.8385771
"Sahakar Nagar, Ground Floor, Room No. 1 Plan 57, Road No.26 Sahakar Nagar, Wadala Mumbai 31","Sahakar Nagar, Ground Floor, Room No. 1 Plan 57, Road No.26 Sahakar Nagar, Wadala Mumbai 31",Yes,Yes,No,19.0115378,72.8534134
Sahkar Nagar Municiple higher Primary english school Wadala west Mumbai-31,Sahkar Nagar Municiple higher Primary english school Wadala west Mumbai-31,No,Yes,Yes,19.0164103,72.855261
"Sahakar Nagar, Open Space Pandal - 1 Plan 57, Road No.26 Sahakar Nagar, Wadala Mumbai 31","Sahakar Nagar, Open Space Pandal - 1 Plan 57, Road No.26 Sahakar Nagar, Wadala Mumbai 31",No,Yes,Yes,19.0115378,72.8534134
"Sahakar Nagar, Open Space Pandal - 2 Plan 57, Road No.26 Sahakar Nagar, Wadala Mumbai 31","Sahakar Nagar, Open Space Pandal - 2 Plan 57, Road No.26 Sahakar Nagar, Wadala Mumbai 31",Yes,No,Yes,19.0115378,72.8534134
"Sahakar Nagar, Open Space Pandal - 3 Plan 57, Road No.26 Sahakar Nagar, Wadala Mumbai 31","Sahakar Nagar, Open Space Pandal - 3 Plan 57, Road No.26 Sahakar Nagar, Wadala Mumbai 31",Yes,No,No,19.0115378,72.8534134
"Sahakar Nagar, Open Space Pandal - 4 Plan 57, Road No.26 Sahakar Nagar, Wadala Mumbai 31","Sahakar Nagar, Open Space Pandal - 4 Plan 57, Road No.26 Sahakar Nagar, Wadala Mumbai 31",No,Yes,No,19.0115378,72.8534134
"Sahakar Nagar, Open Space Pandal - 5 Plan 57, Road No.26 Sahakar Nagar, Wadala Mumbai 31","Sahakar Nagar, Open Space Pandal - 5 Plan 57, Road No.26 Sahakar Nagar, Wadala Mumbai 31",Yes,No,Yes,19.0115378,72.8534134
"Backside Open Play Ground Pandal - 1 Dr.Bhavanishankar Dadarkar Marg, Dadar(W), Mumbai 28","Backside Open Play Ground Pandal - 1 Dr.Bhavanishankar Dadarkar Marg, Dadar(W), Mumbai 28",No,Yes,Yes,19.0208325,72.840678
"Backside Open Play Ground Pandal - 2 Dr.Bhavanishankar Dadarkar Marg, Dadar(W), Mumbai 28","Backside Open Play Ground Pandal - 2 Dr.Bhavanishankar Dadarkar Marg, Dadar(W), Mumbai 28",Yes,Yes,No,19.0208325,72.840678
"Backside Open Play Ground Pandal - 3 Dr.Bhavanishankar Dadarkar Marg, Dadar(W), Mumbai 28","Backside Open Play Ground Pandal - 3 Dr.Bhavanishankar Dadarkar Marg, Dadar(W), Mumbai 28",No,Yes,No,19.0208325,72.840678
"Ground Floor Car Parking Shed Partition - A Dr.Bhavanishankar Dadarkar Marg, Dadar(W), Mumbai 28","Ground Floor Car Parking Shed Partition - A Dr.Bhavanishankar Dadarkar Marg, Dadar(W), Mumbai 28",Yes,No,Yes,19.0208325,72.840678
"Ground Floor Car Parking Shed Partition - B Dr.Bhavanishankar Dadarkar Marg, Dadar(W), Mumbai 28","Ground Floor Car Parking Shed Partition - B Dr.Bhavanishankar Dadarkar Marg, Dadar(W), Mumbai 28",Yes,Yes,Yes,19.0208325,72.840678
"Backside Open Play Ground Pandal - 4 Dr.Bhavanishankar Dadarkar Marg, Dadar(W), Mumbai 28","Backside Open Play Ground Pandal - 4 Dr.Bhavanishankar Dadarkar Marg, Dadar(W), Mumbai 28",Yes,No,Yes,19.0208325,72.840678
"Backside Open Play Ground Pandal - 5 Dr.Bhavanishankar Dadarkar Marg, Dadar(W), Mumbai 28","Backside Open Play Ground Pandal - 5 Dr.Bhavanishankar Dadarkar Marg, Dadar(W), Mumbai 28",Yes,No,Yes,19.0208325,72.840678
"Ground Floor Hall Partition - C Dr.Bhavanishankar Dadarkar Marg, Dadar(W), Mumbai 28","Ground Floor Hall Partition - C Dr.Bhavanishankar Dadarkar Marg, Dadar(W), Mumbai 28",No,Yes,Yes,19.0208325,72.840678
"Middle Open Play Ground, Pandal - 1 Dr. Bhavani Shankar Dadarkar Road, Dadar (West), Mumbai- 28","Middle Open Play Ground, Pandal - 1 Dr. Bhavani Shankar Dadarkar Road, Dadar (West), Mumbai- 28",Yes,No,No,19.0208325,72.840678
"Ground Floor, Room No. 1 Dr. Babasaheb Ambedkar Road (E), Dadar (East), Mumbai-14","Ground Floor, Room No. 1 Dr. Babasaheb Ambedkar Road (E), Dadar (East), Mumbai-14",Yes,No,Yes,19.0138935,72.8443036
"Gymkhana Ground   Dr. N. A. Purandare Stadium, Pandal - 1 S.S.Wagh Marg (North), Nigaon,Dadar (E) Mumbai 14","Gymkhana Ground   Dr. N. A. Purandare Stadium, Pandal - 1 S.S.Wagh Marg (North), Nigaon,Dadar (E) Mumbai 14",Yes,Yes,Yes,19.0123363,72.8448626
"Gymkhana Ground   Dr. N. A. Purandare Stadium, Pandal - 2S.S.Wagh Marg (North), Nigaon, Dadar (E) Mumbai 14","Gymkhana Ground   Dr. N. A. Purandare Stadium, Pandal - 2S.S.Wagh Marg (North), Nigaon, Dadar (E) Mumbai 14",No,Yes,Yes,19.0123363,72.8448626
"Gymkhana Ground   Dr. N. A. Purandare Stadium, Pandal - 3 S.S.Wagh Marg (North), Nigaon,Dadar (E) Mumbai 14","Gymkhana Ground   Dr. N. A. Purandare Stadium, Pandal - 3 S.S.Wagh Marg (North), Nigaon,Dadar (E) Mumbai 14",No,No,No,19.0123363,72.8448626
"Gymkhana Ground   Dr. N. A. Purandare Stadium, Pandal - 4 S.S.Wagh Marg (North), Nigaon, Dadar (E) Mumbai 14","Gymkhana Ground   Dr. N. A. Purandare Stadium, Pandal - 4 S.S.Wagh Marg (North), Nigaon, Dadar (E) Mumbai 14",Yes,Yes,Yes,19.0123363,72.8448626
"Ground Floor Room No.1 S.S.Wagh Marg (North), Nigaon,Dadar (E) Mumbai 14","Ground Floor Room No.1 S.S.Wagh Marg (North), Nigaon,Dadar (E) Mumbai 14",No,No,No,19.0112644,72.8471995
"Ground Floor Room No.2 S.S.Wagh Marg (North), Nigaon,Dadar (E) Mumbai 14","Ground Floor Room No.2 S.S.Wagh Marg (North), Nigaon,Dadar (E) Mumbai 14",No,Yes,Yes,19.0113215,72.8458685
"Ground Floor Hall Partition - A S.S.Wagh Marg (North), Nigaon, Dadar (E) Mumbai 14","Ground Floor Hall Partition - A S.S.Wagh Marg (North), Nigaon, Dadar (E) Mumbai 14",No,No,Yes,19.0114166,72.8460948
"Ground Floor Hall Partition-B S.S.Wagh Marg (North), Nigaon, Dadar (E) Mumbai 14","Ground Floor Hall Partition-B S.S.Wagh Marg (North), Nigaon, Dadar (E) Mumbai 14",Yes,Yes,Yes,19.0114166,72.8460948
"Ground Floor Hall Partition-C S.S.Wagh Marg (North), Nigaon, Dadar (E) Mumbai 14","Ground Floor Hall Partition-C S.S.Wagh Marg (North), Nigaon, Dadar (E) Mumbai 14",Yes,No,Yes,19.0114166,72.8460948
"Ground Floor, Room No.1 S.S.Wagh Marg (North), Nigaon, Dadar (E) Mumbai 14","Ground Floor, Room No.1 S.S.Wagh Marg (North), Nigaon, Dadar (E) Mumbai 14",No,Yes,No,19.0112644,72.8471995
"Ground Floor, Room No.2 S.S.Wagh Marg (North), Nigaon, Dadar (E) Mumbai 14","Ground Floor, Room No.2 S.S.Wagh Marg (North), Nigaon, Dadar (E) Mumbai 14",No,No,Yes,19.0113215,72.8458685
"Open Ground, Pandal - 1 S.S.Wagh Marg (North), Nigaon, Dadar (E) Mumbai 14","Open Ground, Pandal - 1 S.S.Wagh Marg (North), Nigaon, Dadar (E) Mumbai 14",Yes,No,Yes,19.0112644,72.8471995
"Open Ground, Pandal - 2 S.S.Wagh Marg (North), Nigaon, Dadar (E) Mumbai 14","Open Ground, Pandal - 2 S.S.Wagh Marg (North), Nigaon, Dadar (E) Mumbai 14",Yes,Yes,No,19.0113215,72.8458685
"New Asha Buliding,Ground Floor, Room No.1 Dadasaheb Phalke Road, Dadar (E), Mumbai 14","New Asha Buliding,Ground Floor, Room No.1 Dadasaheb Phalke Road, Dadar (E), Mumbai 14",No,Yes,No,19.015541,72.84322569999999
"Ground Floor, Room No. 1 Dadasaheb Phalke Road, Dadar (E), Mumbai 14","Ground Floor, Room No. 1 Dadasaheb Phalke Road, Dadar (E), Mumbai 14",No,No,Yes,19.015541,72.84322569999999
"Ground Floor, Room No. 2 Dadasaheb Phalke Road, Dadar (E), Mumbai 14","Ground Floor, Room No. 2 Dadasaheb Phalke Road, Dadar (E), Mumbai 14",Yes,No,No,19.0155271,72.84326949999999
"Pandal - 1Govindaji Keni Road, Opp. Apana Bazar, Naigaon, Dadar (E), Mumbai 14","Pandal - 1Govindaji Keni Road, Opp. Apana Bazar, Naigaon, Dadar (E), Mumbai 14",No,Yes,Yes,19.0075979,72.8448389
"Pandal - 2 Govindaji Keni Road, Opp. Apana Bazar, Naigaon, Dadar (E), Mumbai 14","Pandal - 2 Govindaji Keni Road, Opp. Apana Bazar, Naigaon, Dadar (E), Mumbai 14",Yes,Yes,No,19.0066793,72.8456618
"Pandal - 3 Govindaji Keni Road, Opp. Apana Bazar, Naigaon, Dadar (E), Mumbai 14","Pandal - 3 Govindaji Keni Road, Opp. Apana Bazar, Naigaon, Dadar (E), Mumbai 14",Yes,Yes,No,19.0092045,72.8429221
"Pandal - 4 Govindaji Keni Road, Opp. Apana Bazar, Naigaon, Dadar (E), Mumbai 14","Pandal - 4 Govindaji Keni Road, Opp. Apana Bazar, Naigaon, Dadar (E), Mumbai 14",Yes,Yes,Yes,19.0093864,72.8423437
"Shindewadi, Pandal - 1 Dadasaheb Phalke Road, Dadar (E), Mumbai 14","Shindewadi, Pandal - 1 Dadasaheb Phalke Road, Dadar (E), Mumbai 14",No,No,Yes,19.015541,72.84322569999999
"Shindewadi, Pandal - 2 Dadasaheb Phalke Road, Dadar (E), Mumbai 14","Shindewadi, Pandal - 2 Dadasaheb Phalke Road, Dadar (E), Mumbai 14",No,No,No,19.0155271,72.84326949999999
"Shindewadi, Pandal - 3 Dadasaheb Phalke Road, Dadar (E), Mumbai 14","Shindewadi, Pandal - 3 Dadasaheb Phalke Road, Dadar (E), Mumbai 14",No,Yes,No,19.0155271,72.8432696
"Shindewadi, Pandal - 4 Dadasaheb Phalke Road, Dadar (E), Mumbai 14","Shindewadi, Pandal - 4 Dadasaheb Phalke Road, Dadar (E), Mumbai 14",Yes,No,Yes,19.0151893,72.8431897
"Shindewadi, Pandal - 5 Dadasaheb Phalke Road, Dadar (E), Mumbai 14 stage partition","Shindewadi, Pandal - 5 Dadasaheb Phalke Road, Dadar (E), Mumbai 14 stage partition",No,Yes,Yes,19.0155742,72.8431296
"Ground Floor, Hall Partition- A Dadasaheb Phalke Road, Dadar (E), Mumbai 14","Ground Floor, Hall Partition- A Dadasaheb Phalke Road, Dadar (E), Mumbai 14",Yes,Yes,Yes,19.009398,72.84191000000001
"Ground Floor, Room No. 2 Dr. Babsaheb Ambedkar Road (E), Dadar (East), Mumbai - 14","Ground Floor, Room No. 2 Dr. Babsaheb Ambedkar Road (E), Dadar (East), Mumbai - 14",Yes,Yes,Yes,19.010342,72.841967
", Ground Floor, Room No. 3 Dr. Babsaheb Ambedkar Road (E), Dadar (East), Mumbai - 14",", Ground Floor, Room No. 3 Dr. Babsaheb Ambedkar Road (E), Dadar (East), Mumbai - 14",No,Yes,Yes,19.012194,72.844044
"India Bulls Finance Center Building, Ground Floor, Partition -A Senapati Bapat Marg(E), Elephiston, Mumbai 13","India Bulls Finance Center Building, Ground Floor, Partition -A Senapati Bapat Marg(E), Elephiston, Mumbai 13",Yes,Yes,No,19.01463,72.8384913
"India Bulls Finance Center Building, Ground Floor, Partition -B Senapati Bapat Marg(E), Elephiston, Mumbai 13","India Bulls Finance Center Building, Ground Floor, Partition -B Senapati Bapat Marg(E), Elephiston, Mumbai 13",No,No,No,19.01463,72.8384913
"India Bulls Finance Center Building, Ground Floor, Partition -C Senapati Bapat Marg(E), Elephiston, Mumbai 13","India Bulls Finance Center Building, Ground Floor, Partition -C Senapati Bapat Marg(E), Elephiston, Mumbai 13",No,Yes,Yes,19.01463,72.8384913
"India Bulls Finance Center Building, Ground Floor, Partition -D Senapati Bapat Marg(E), Elephiston, Mumbai 13","India Bulls Finance Center Building, Ground Floor, Partition -D Senapati Bapat Marg(E), Elephiston, Mumbai 13",No,No,No,19.01463,72.8384913
"Hutatma Babu Genu Mumbai Mills Worker Krida Bhavan, Open Stage Partition - A Senapati Bapat Marg(E), Elephiston, Mumbai 13","Hutatma Babu Genu Mumbai Mills Worker Krida Bhavan, Open Stage Partition - A Senapati Bapat Marg(E), Elephiston, Mumbai 13",No,Yes,Yes,19.026602,72.83609659999999
"Hutatma Babu Genu Mumbai Mills Worker Krida Bhavan, Open Stage Partition - B Senapati Bapat Marg(E), Elephiston, Mumbai 13","Hutatma Babu Genu Mumbai Mills Worker Krida Bhavan, Open Stage Partition - B Senapati Bapat Marg(E), Elephiston, Mumbai 13",No,Yes,No,19.026602,72.83609659999999
"India Bulls Finance Center Building, Ground Floor, Partition -E Senapati Bapat Marg(E), Elephiston, Mumbai 13","India Bulls Finance Center Building, Ground Floor, Partition -E Senapati Bapat Marg(E), Elephiston, Mumbai 13",Yes,Yes,No,19.01463,72.8384913
"Pandal - 5 Govindji Keni Road, Opp. Apna Bazar, Naigaon, Dadar East - 12","Pandal - 5 Govindji Keni Road, Opp. Apna Bazar, Naigaon, Dadar East - 12",No,No,Yes,19.0091195,72.8437218
"Pandal - 6 Govindji Keni Road, Opp. Apna Bazar, Naigaon, Dadar East - 12","Pandal - 6 Govindji Keni Road, Opp. Apna Bazar, Naigaon, Dadar East - 12",No,No,Yes,19.009256,72.843465
"Pandal - 7 Govindji Keni Road, Opp. Apna Bazar, Naigaon, Dadar East - 12","Pandal - 7 Govindji Keni Road, Opp. Apna Bazar, Naigaon, Dadar East - 12",No,Yes,Yes,19.0092657,72.84253
"Ground Floor, Room No. 2 Dr. Babasaheb Ambedkar Road (E), Dadar (East), Mumbai-14","Ground Floor, Room No. 2 Dr. Babasaheb Ambedkar Road (E), Dadar (East), Mumbai-14",No,No,No,19.010342,72.841967
"Ground Floor, Room No. 3 Dr. Babasaheb Ambedkar Road (E), Dadar (East), Mumbai-14","Ground Floor, Room No. 3 Dr. Babasaheb Ambedkar Road (E), Dadar (East), Mumbai-14",No,No,Yes,19.012194,72.844044
"Ground Floor, Room No. 4 Dr. Babasaheb Ambedkar Road (E), Dadar (East), Mumbai-14","Ground Floor, Room No. 4 Dr. Babasaheb Ambedkar Road (E), Dadar (East), Mumbai-14",No,No,No,19.0142991,72.8456168
"Ground Floor, Room No. 5 Dr. Babasaheb Ambedkar Road (E), Dadar (East), Mumbai-14","Ground Floor, Room No. 5 Dr. Babasaheb Ambedkar Road (E), Dadar (East), Mumbai-14",Yes,No,Yes,19.000156,72.847492
"Ground Floor, Room No. 6 Dr. Babasaheb Ambedkar Road (E), Dadar (East), Mumbai-14","Ground Floor, Room No. 6 Dr. Babasaheb Ambedkar Road (E), Dadar (East), Mumbai-14",Yes,No,Yes,19.013856,72.845193
"Ground Floor, Room No. 7 Dr. Babasaheb Ambedkar Road (E), Dadar (East), Mumbai-14","Ground Floor, Room No. 7 Dr. Babasaheb Ambedkar Road (E), Dadar (East), Mumbai-14",No,No,Yes,19.0057649,72.84041599999999
"Pandal - 8 Govindji Keni Road, Opp. Apna Bazar, Naigaon, Dadar East - 12","Pandal - 8 Govindji Keni Road, Opp. Apna Bazar, Naigaon, Dadar East - 12",Yes,Yes,Yes,19.0083674,72.8437241
"Ground Floor, Room No. 10 Dr. Babsaheb Ambedkar Road (E), Dadar (East), Mumbai - 14","Ground Floor, Room No. 10 Dr. Babsaheb Ambedkar Road (E), Dadar (East), Mumbai - 14",No,No,Yes,19.0075,72.84049999999999
"India Bulls Finance Center Building, Ground Floor, Partition - F Senapati Bapat Marg(E), Elephiston, Mumbai 13","India Bulls Finance Center Building, Ground Floor, Partition - F Senapati Bapat Marg(E), Elephiston, Mumbai 13",Yes,Yes,No,19.01463,72.8384913
"Hutatma Babu Genu, Mumbai Mills worker Krida Bhawan, New Bldg, Car Parking Partition - A Senapati Bapat Marg(W), Behind Lokmanya Nagar, Elephiston, Mumbai 13","Hutatma Babu Genu, Mumbai Mills worker Krida Bhawan, New Bldg, Car Parking Partition - A Senapati Bapat Marg(W), Behind Lokmanya Nagar, Elephiston, Mumbai 13",Yes,Yes,No,19.026602,72.83609659999999
"Hutatma Babu Genu, Mumbai Mills worker Krida Bhawan, New Bldg, Car Parking Partition - B Senapati Bapat Marg(W), Behind Lokmanya Nagar, Elephiston, Mumbai 13","Hutatma Babu Genu, Mumbai Mills worker Krida Bhawan, New Bldg, Car Parking Partition - B Senapati Bapat Marg(W), Behind Lokmanya Nagar, Elephiston, Mumbai 13",Yes,No,Yes,19.026602,72.83609659999999
"Open Passage, Pandal - 1 Dr. Babasaheb Ambedkar Road (E), Dadar (East), Mumbai-14","Open Passage, Pandal - 1 Dr. Babasaheb Ambedkar Road (E), Dadar (East), Mumbai-14",No,No,Yes,19.0138935,72.8443036
"Open Passage, Pandal - 2 Dr. Babasaheb Ambedkar Road (E), Dadar (East), Mumbai-14","Open Passage, Pandal - 2 Dr. Babasaheb Ambedkar Road (E), Dadar (East), Mumbai-14",No,No,Yes,19.010342,72.841967
"Open Passage, Pandal - 3 Dr. Babasaheb Ambedkar Road (E), Dadar (East), Mumbai-14","Open Passage, Pandal - 3 Dr. Babasaheb Ambedkar Road (E), Dadar (East), Mumbai-14",Yes,Yes,No,19.012194,72.844044
"Open Passage, Pandal - 4 Dr. Babasaheb Ambedkar Road (E), Dadar (East), Mumbai-14","Open Passage, Pandal - 4 Dr. Babasaheb Ambedkar Road (E), Dadar (East), Mumbai-14",No,Yes,Yes,19.0142991,72.8456168
"Ground Floor, Room No.4 Dr. Babasaheb Ambedkar Road (E), Dadar (East), Mumbai-14","Ground Floor, Room No.4 Dr. Babasaheb Ambedkar Road (E), Dadar (East), Mumbai-14",Yes,No,No,19.0142991,72.8456168
"Ground Floor, Room No.5 Dr. Babasaheb Ambedkar Road (E), Dadar (East), Mumbai-14","Ground Floor, Room No.5 Dr. Babasaheb Ambedkar Road (E), Dadar (East), Mumbai-14",Yes,Yes,Yes,19.000156,72.847492
"Ground Floor, Room No.6 Dr. Babasaheb Ambedkar Road (E), Dadar (East), Mumbai-14","Ground Floor, Room No.6 Dr. Babasaheb Ambedkar Road (E), Dadar (East), Mumbai-14",No,No,No,19.013856,72.845193
"Ground Floor Room No 1 St. Xavier Steet, Naigaon Parel, Mumbai-12","Ground Floor Room No 1 St. Xavier Steet, Naigaon Parel, Mumbai-12",No,Yes,No,19.0065045,72.8456927
"Ground Floor Room No 2 St. Xavier Steet, Naigaon Parel, Mumbai-12","Ground Floor Room No 2 St. Xavier Steet, Naigaon Parel, Mumbai-12",No,Yes,Yes,19.0066068,72.8455908
"Ground Floor Room No 3 St. Xavier Steet, Naigaon Parel, Mumbai-12","Ground Floor Room No 3 St. Xavier Steet, Naigaon Parel, Mumbai-12",Yes,No,No,19.0065765,72.8457736
"Ground Floor Hall Partition - A St. Xavier Steet, Naigaon Parel, Mumbai-12","Ground Floor Hall Partition - A St. Xavier Steet, Naigaon Parel, Mumbai-12",Yes,No,Yes,19.0066981,72.84587710000001
"Ground Floor Hall Partition - B St. Xavier Steet, Naigaon Parel, Mumbai-12","Ground Floor Hall Partition - B St. Xavier Steet, Naigaon Parel, Mumbai-12",No,Yes,No,19.0066981,72.84587710000001
"Ground Floor Hall Partition - C St. Xavier Steet, Naigaon Parel, Mumbai-12","Ground Floor Hall Partition - C St. Xavier Steet, Naigaon Parel, Mumbai-12",No,No,Yes,19.0060407,72.8436071
"Ground Floor Hall Partition - D St. Xavier Steet, Naigaon Parel, Mumbai-12","Ground Floor Hall Partition - D St. Xavier Steet, Naigaon Parel, Mumbai-12",No,Yes,No,19.0066981,72.84587710000001
"Ground Floor Hall Partition - E St. Xavier Steet, Naigaon Parel, Mumbai-12","Ground Floor Hall Partition - E St. Xavier Steet, Naigaon Parel, Mumbai-12",Yes,No,No,19.0060407,72.8436071
"Ground Floor Hall Partition - F St. Xavier Steet, Naigaon Parel, Mumbai-12","Ground Floor Hall Partition - F St. Xavier Steet, Naigaon Parel, Mumbai-12",No,No,No,19.0066981,72.84587710000001
"Ground Floor Hall Partition - G St. Xavier Steet, Naigaon Parel, Mumbai-12","Ground Floor Hall Partition - G St. Xavier Steet, Naigaon Parel, Mumbai-12",Yes,No,Yes,19.0066981,72.84587710000001
"Ground Floor Hall Partition - H St. Xavier Steet, Naigaon Parel, Mumbai-12","Ground Floor Hall Partition - H St. Xavier Steet, Naigaon Parel, Mumbai-12",No,No,No,19.0060407,72.8436071
"Ground Floor, Room No.2 Rafi Ahmed Kidwai Road (E) (Shiwadi-Wadala), Shiwadi, Mumbai-15","Ground Floor, Room No.2 Rafi Ahmed Kidwai Road (E) (Shiwadi-Wadala), Shiwadi, Mumbai-15",No,No,Yes,19.0092171,72.853697
"Ground Floor, Room No.3 Rafi Ahmed Kidwai Road (E) (Shiwadi-Wadala), Shiwadi, Mumbai-15","Ground Floor, Room No.3 Rafi Ahmed Kidwai Road (E) (Shiwadi-Wadala), Shiwadi, Mumbai-15",Yes,No,Yes,19.0063233,72.8544277
"Ground Floor, Room No.5 Rafi Ahmed Kidwai Road (E) (Shiwadi-Wadala), Shiwadi, Mumbai-15","Ground Floor, Room No.5 Rafi Ahmed Kidwai Road (E) (Shiwadi-Wadala), Shiwadi, Mumbai-15",Yes,No,Yes,19.0138,72.855828
"Ground Floor, Room No.6 Rafi Ahmed Kidwai Road (E) (Shiwadi-Wadala), Shiwadi, Mumbai-15","Ground Floor, Room No.6 Rafi Ahmed Kidwai Road (E) (Shiwadi-Wadala), Shiwadi, Mumbai-15",Yes,Yes,No,19.0107608,72.8546032
"Ground Floor, Room No.7 Rafi Ahmed Kidwai Road (E) (Shiwadi-Wadala), Shiwadi, Mumbai-15","Ground Floor, Room No.7 Rafi Ahmed Kidwai Road (E) (Shiwadi-Wadala), Shiwadi, Mumbai-15",No,No,Yes,19.0060235,72.85374709999999
"Ground Floor Hall, Partition - A Rafi Ahmed Kidwai Road (E) (Shiwadi-Wadala), Shiwadi, Mumbai-15","Ground Floor Hall, Partition - A Rafi Ahmed Kidwai Road (E) (Shiwadi-Wadala), Shiwadi, Mumbai-15",No,No,No,19.014875,72.85659
"Ground Floor Hall, Partition - B Rafi Ahmed Kidwai Road (E) (Shiwadi-Wadala), Shiwadi, Mumbai-15","Ground Floor Hall, Partition - B Rafi Ahmed Kidwai Road (E) (Shiwadi-Wadala), Shiwadi, Mumbai-15",Yes,Yes,No,19.014875,72.85659
", Ground Floor Hall, Partition - C Rafi Ahmed Kidwai Road (E) (Shiwadi-Wadala), Shiwadi, Mumbai-15",", Ground Floor Hall, Partition - C Rafi Ahmed Kidwai Road (E) (Shiwadi-Wadala), Shiwadi, Mumbai-15",No,No,Yes,19.0154725,72.8566037
"Ground Floor Hall, Partition - D Rafi Ahmed Kidwai Road (E) (Shiwadi-Wadala), Shiwadi, Mumbai-15","Ground Floor Hall, Partition - D Rafi Ahmed Kidwai Road (E) (Shiwadi-Wadala), Shiwadi, Mumbai-15",No,Yes,No,19.014875,72.85659
"Ground Floor, Room No.7 Dr.Babasaheb Ambedkar Road(E), Dadar (East), Mumbai-14","Ground Floor, Room No.7 Dr.Babasaheb Ambedkar Road(E), Dadar (East), Mumbai-14",Yes,Yes,Yes,19.0057649,72.84041599999999
"Ground Floor, Room No.8 Dr.Babasaheb Ambedkar Road(E), Dadar (East), Mumbai-14","Ground Floor, Room No.8 Dr.Babasaheb Ambedkar Road(E), Dadar (East), Mumbai-14",No,No,No,19.0166134,72.8467166
"Ground Floor, Room No.9 Dr.Babasaheb Ambedkar Road(E), Dadar (East), Mumbai-14","Ground Floor, Room No.9 Dr.Babasaheb Ambedkar Road(E), Dadar (East), Mumbai-14",Yes,Yes,Yes,19.015391,72.8456514
"Hutatma Babu Genu Mumbai Mills Worker Krida Bhavan, New Building, Car Parking Partition - D Senapati Bapat Road (E), Elphinstone (W), Mumbai 13","Hutatma Babu Genu Mumbai Mills Worker Krida Bhavan, New Building, Car Parking Partition - D Senapati Bapat Road (E), Elphinstone (W), Mumbai 13",Yes,No,Yes,19.026602,72.83609659999999
"Hutatma Babu Genu Mumbai Mills Worker Krida Bhavan, New Building, Car Parking Partition - E Senapati Bapat Road (E), Elphinstone (W), Mumbai 13","Hutatma Babu Genu Mumbai Mills Worker Krida Bhavan, New Building, Car Parking Partition - E Senapati Bapat Road (E), Elphinstone (W), Mumbai 13",No,No,Yes,19.026602,72.83609659999999
"Open Ground, Pandal - 1 St. Xavier Street (S), Opp. Bhoiwada Court, Naigaon, Parel, Mumbai-12","Open Ground, Pandal - 1 St. Xavier Street (S), Opp. Bhoiwada Court, Naigaon, Parel, Mumbai-12",Yes,Yes,No,19.0065045,72.8456927
"Open Ground, Pandal - 2 St. Xavier Street (S), Opp. Bhoiwada Court, Naigaon, Parel, Mumbai-12","Open Ground, Pandal - 2 St. Xavier Street (S), Opp. Bhoiwada Court, Naigaon, Parel, Mumbai-12",No,Yes,No,19.0066068,72.8455908
"Open Ground, Pandal - 3 St. Xavier Street (S), Opp. Bhoiwada Court, Naigaon, Parel, Mumbai-12","Open Ground, Pandal - 3 St. Xavier Street (S), Opp. Bhoiwada Court, Naigaon, Parel, Mumbai-12",Yes,Yes,Yes,19.0065765,72.8457736
"Ground Floor Hall St. Xevier s Street (S), Parel, Mumbai-12","Ground Floor Hall St. Xevier s Street (S), Parel, Mumbai-12",Yes,Yes,No,18.9429977,72.8315398
"Ground Floor, Room No.1 Shiwadi Koliwada Road, Shiwadi (E), Shiwadi, Mumbai-15","Ground Floor, Room No.1 Shiwadi Koliwada Road, Shiwadi (E), Shiwadi, Mumbai-15",Yes,No,No,18.9793216,72.8429561
"Ground Floor, Room No.2 Shiwadi Koliwada Road, Shiwadi (E), Shiwadi, Mumbai-15","Ground Floor, Room No.2 Shiwadi Koliwada Road, Shiwadi (E), Shiwadi, Mumbai-15",No,No,No,19.0081894,72.8528403
"Ground Floor, Room No.3 Shiwadi Koliwada Road, Shiwadi (E), Shiwadi, Mumbai-15","Ground Floor, Room No.3 Shiwadi Koliwada Road, Shiwadi (E), Shiwadi, Mumbai-15",No,Yes,No,18.9853614,72.8434008
"Ground In Front of B. P. T. Samaj Kalyan Kendra,","Sangeetratna Kesarinath Buva Bhaye Marg, Ground Floor,
Mandap, Mumbai 400 030",Yes,Yes,Yes,19.0233505,72.8172399
D.Y. Patil International School,",Veer Nariman Street, GroundFloor Hall,Adarsh Nagar,
Mumbai 400 030",Yes,No,No,19.0151379,72.8232551
"Janata Shikshan Sanstha High School,","Ground Floor, Room No 1, Veer Nariman Street, Mumbai -
400 030.",Yes,No,No,19.0147899,72.82337749999999
"Brihanmumbai Mahanagarpalika,","Veer Nariman Street, Adarsh Nagar School,Ground Floor,
Room No. 1, Mumbai 400 030",No,Yes,Yes,19.0151379,72.8232551
"Bal Vikas Mandir School, Opp. Worli Sports Club,","Ground Floor, Room No. 1, Veer Nariman Street, Mumbai
400 030",Yes,Yes,Yes,19.0147899,72.82337749999999
"Adarsh Nagar English High School, Adarsh Nagar
Tenents Welfare Centre,","Ground Floor, Room No.1, Opp. Building Number 27,
Worli, Mumbai 400 030",Yes,No,Yes,19.0121697,72.8218627
"Sacred Heart High School, Ground Floor,","Room No. 1, Sasmira Marg, Mumbai 400 030",No,No,No,19.0113674,72.8195729
"Sasmira Silk And Arts Silk Mills Institute And
Research Association,","Ground Floor, Entrance Passage Part -1, Dr. Annie Besant
Road,Mumbai -  400 030.",Yes,No,No,19.005562,72.8176359
"The New Workshop For The Blind,","Hall-Part -1, Ground Floor, J. B. Temkar Marg, Mumbai 400
030",No,No,Yes,19.0129305,72.8222695
"BrihanMumbai Mahangarpalika, Glob Mill
Passage School No. 2,","Room No.1, Ground Floor, Pandurang Budhkar Marg,
Mumbai 400 013",No,No,Yes,19.0062976,72.8252984
"Century Mill Kamgar Vasahat Building A -17,","Mandap No. 7, Pandurang Budhkar Marg, Mumbai-
400013",No,Yes,Yes,19.0064345,72.8207302
"BrihanMumbai Mahanagar palika Worli Sea Face
Samuh School,","Ground Floor, Room No.1, Khan Abdul Gafar Khan Road,
Mumbai 400 030",Yes,No,No,19.0121697,72.8218627
"Open Space In Front Of Century Mill Workers
Colony,","Mandap 1, Pandurang Budhkar Marg, Mumbai. 400013",No,Yes,No,19.006142,72.824731
"Century Janseva Trustdvara Sanchalit Bal Mandir
Corner Building,","Ground Floor,Hall Partition, Pandurang Budhkar Marg,
Mumbai 400 013",Yes,Yes,Yes,19.0062976,72.8252984
"Rashtriya Shikshan Sanshodhan Sanstha
Yashwant Bhavan, ( K. G. T. School ),","Ground Floor, Part - 1, Pandurang Budhkar Marg, Mumbai
400013",Yes,No,No,19.006142,72.824731
"B.D.D Chawl No 22,","Mandap 1, Dr. G.M Bhosle Marg, Worli, Mumbai 400 018",Yes,Yes,No,19.0003167,72.8180768
"Pwd Office And Sawli Building Compaund,","Mandap No. 1, Ganpat Jadhav Marg, Worli Bdd Chawls,
Worli, Mumbai, 400 018",No,No,Yes,19.002425,72.817459
"Udyog Shikshan Kendra,","Ground Floor Hall Part -1, Gandhi Maidan (Jambhori
Maidan ), Dr. G.M.Bhosle Marg, Mumbai 400 018",Yes,Yes,Yes,19.0025511,72.81886829999999
"BrihanMumbai Mahanagarpalika Dr. Baba Saheb
Ambedakar School No. 2","Ground Floor, Room No. 7, S.S. Amrutwar Marg, Mumbai
400 013",Yes,No,Yes,18.9981729,72.8274691
"BrihanMumbai Mahanagarpalika Dr. Baba Saheb
Ambedakar School No. 3","Ground Floor, Room No. 8, S.S. Amrutwar Marg, Mumbai
400 013",Yes,Yes,No,18.9981729,72.8274691
"BrihanMumbai Mahanagarpalika Dr. Baba Saheb
Ambedakar School No. 4","Ground Floor, Room No. 9, S.S. Amrutwar Marg, Mumbai
400 013",Yes,Yes,Yes,18.9981729,72.8274691
"BrihanMumbai Mahanagarpalika Dr. Baba Saheb
Ambedakar School No. 5","Ground Floor, Room No.10, S.S. Amrutwar Marg, Mumbai
400 013",Yes,No,No,18.9981729,72.8274691
"BrihanMumbai Mahanagarpalika Dr. Baba Saheb
Ambedakar School No. 6","Ground Floor, Room No. 11, S.S. Amrutwar Marg, Mumbai
400 013",No,Yes,No,19.001686,72.822194
"BrihanMumbai Mahanagarpalika Dr. Baba Saheb
Ambedakar School No. 7","Ground Floor, Room No. 12, S.S. Amrutwar Marg, Mumbai
400 013",Yes,No,No,19.0110743,72.84662759999999
"R. K. Poddar Medical College,","Library Building, Lecture Room No. 6, Ground Floor, Dr,
Annie Besant Road, Mumbai 400 030",Yes,No,No,19.0074013,72.8187146
"Pwd, Mahatma Gandhi Maidan, (Jambori
Maidan),","Mandap 1, Dr. G.M Bhosle Road, Worli, Mumbai 400018",No,No,No,19.0003167,72.8180768
"BrihanMumbai Mahanagarpalika Dr. Baba Saheb
Ambedakar School No. 8","Ground Floor, Room No. 1, S.S. Amrutwar Marg, Mumbai
400 013",No,Yes,No,19.0111219,72.84714
"BrihanMumbai Mahanagarpalika Dr. Baba Saheb
Ambedakar School No. 9","Ground Floor, Room No. 2, S.S. Amrutwar Marg, Mumbai
400 013",No,Yes,No,18.9981729,72.8274691
"BrihanMumbai Mahanagarpalika Dr. Baba Saheb
Ambedakar School No. 10","Ground Floor, Room No. 3, S.S. Amrutwar Marg, Mumbai
400 013",No,No,Yes,19.011325,72.84674799999999
"BrihanMumbai Mahanagarpalika Dr. Baba Saheb
Ambedakar School No. 11","Ground Floor, Room No. 4, S.S. Amrutwar Marg, Mumbai
400 013",No,No,Yes,18.9981729,72.8274691
"BrihanMumbai Mahanagarpalika Dr. Baba Saheb
Ambedakar School No. 12","Ground Floor, Room No. 5, S.S. Amrutwar Marg, Mumbai
400 013",No,No,Yes,18.9985412,72.82185249999999
"BrihanMumbai Mahanagarpalika Dr. Baba Saheb
Ambedakar School No. 13","Ground Floor, Room No. 6, S.S. Amrutwar Marg, Mumbai
400 013",Yes,Yes,Yes,18.9981729,72.8274691
"Maratha High School,","Ground Floor Hall Part -1, Tabela Compound, S.S.
Amrutwar Marg, Mumbai 400013",No,No,Yes,18.9980191,72.82762869999999
"Kamgar Kalyan kendra,","Welfare Cantre Shishu Vihar School, Ground Floor,
Ganapat Jadhav Marg, Mumbai 400 018",Yes,No,No,18.9869094,72.8354832
"Worli Dairy, Worli Sea Face,","Mandap No. 1, Abdul Gafarkhan Road, Mumbai 400 018",No,No,Yes,18.9985145,72.8173545
Gokul Primary School,"Ground Floor, Room No.1, Bhagoji Waghmare Marg,
Mumbai 400018",Yes,Yes,Yes,19.00144,72.8203436
"Brihanmumbai Mahanagarpalika School No. 1,","Talachekar Wadi, Ground Floor Hall Part - 1,
Harishchandra L.Nagaonkar Marg , Mumbai 400013",No,Yes,Yes,19.0000029,72.8310119
"Municipal Ground Near Phoenix Mall,","Mandap No. 1, Senapati Bapat Marg, Lower Parel,
Mumbai 400 013",No,No,Yes,18.9947109,72.8258295
"Haidrabad (Sindh) National Collegiate University
Mumbai,","Hall-Part 1, D.M. Harish Building, 47, Dr. R. G. Thadani
Marg, Worli, Mumbai  400 018",No,No,Yes,19.0025299,72.81418400000001
"Brihanmumbai Mahangarpalika, Ganpatrao
Kadam Marg School,","Ground Floor, Room No-4, Ganapatrao Kadam Marg,
Lower Parel, Mumbai 400013",Yes,Yes,No,18.998072,72.83090349999999
"Maharashtra Kamgar Kalyan Kendra, Lalit Kala
Bhavan,","Ground Floor, Hall Part - 1, Jambori Maidan, G. M. Bhosale
Marg, Mumbai 18",Yes,No,No,19.0031932,72.81923669999999
"BrihanMumbai Mahanagarpalika, Worli Naka
School,","Mandap No. 1, Dr. Annie Besant Road, Mumbai 400 018",No,Yes,No,19.005562,72.8176359
"Janata Seva Mandal Balsanskar Kendra,","Ground Floor, Dainik Shivaner Marg, Mumbai 400 013",No,No,No,18.9943302,72.8210254
"BrihanMumbai Mahanagarpalika, Kasturaba
Gandhi Nagar School,","Ground Floor Hall Part -1, Dainik Shivner Marg, Mumbai
400 018",Yes,Yes,No,18.994413,72.8227806
Lokhandwala Residency,"Parking-Part -1, Manjrekar Lane, Dainik Shivner Marg,
Gandhi Nagar, Mumbai 400018.",No,No,Yes,18.9939254,72.8228251
"Brihanmumbai Mahanagarpalika Hindi Urdu
School,","Ground Floor, Room No. 2, Veer Jijamata Nagar, Dr. E.
Moses Marg, Worli Mumbai 400 018",No,Yes,No,18.9929062,72.8203701
"Bapusaheb Mhaskar Udyan Maidan,","Mandap-1, Jivraj Ramji Boricha Marg, Mumbai 400 013",No,No,No,18.9879558,72.8264753
Indian Council Of Social Welfare Trust Bal Mandir,"Hall Part - 1, Jijamata Nagar, Dr. E. Moses Marg, Mumbai
400 018",Yes,Yes,Yes,18.9929062,72.8203701
"Ground Near Sitaram Mills Compound School,","Mandap-1, Jivraj Ramji Boricha Marg, Mumbai 400013",Yes,Yes,No,18.9879558,72.8264753
"Open Space Between B.D.D. Chawl No. 27 and
32,","Mandap No. 1, Sakhu Bai Mohite Marg, Mumbai 400 013",No,Yes,No,18.9911965,72.8311559
Kamgar Kalyan Kendrashishu Sanskar Shool,"Ground Floor, Room No. 1, Sakhubai Mohite Marg,
Mumbai 400 013",No,Yes,Yes,18.9911965,72.8311559
"Family Welfare Agency,","Ground Floor, Room No. 1, N. M. Joshi Marg, Mumbai 400
013",No,Yes,No,18.9782717,72.8315185
Mandap - 1,"Ground in front of Mahapalika Community Hall, Khan
Abdul Gafar Khan Road, Worli, Mumbai 400018",Yes,Yes,No,19.0002858,72.8115986
Mandap - 2,"Ground in front of Mahapalika Community Hall, Khan
Abdul Gafar Khan Road, Worli, Mumbai 400018",Yes,No,Yes,19.0002858,72.8115986
Mandap - 3,"Ground in front of Mahapalika Community Hall, Khan
Abdul Gafar Khan Road, Worli Mumbai 400018",Yes,Yes,Yes,19.0002858,72.8115986
Mandap - 4,"Ground in front of Mahapalika Community Hall, Khan
Abdul Gafar Khan Road, Worli, Mumbai 400018",No,No,Yes,19.0002858,72.8115986
"Western Railway Sport Association Building,","Ground Floor, Room no. 1, Senapati Bapat Marg, Near
Mahalaxmi Sport Ground, Mumbai 400 013",Yes,Yes,Yes,19.0013624,72.8297152
"Ground Floor A-5, Worli Sea Side,","Mandap - 1, Narayan Pujari Nagar, Khan Abdul Gaffar
Khan Road, Mumbai 400 018",No,No,Yes,18.994503,72.813733
"Bruhanmumbai Mahanagar Palika M.P.S. School
No.2, New Building,","Mandap - 1, J. R. Boricha Marg, Mumbai 400 011",Yes,No,No,18.9879558,72.8264753
"BrihanMumbai Mahanagarpalika, Lovh grovh
Pumping Station School,","Ground Floor, Room No. - 1, Dr. Annie Besant Road
Mumbai 400 018",No,No,No,19.005562,72.8176359
"Nehru Space Centre, Exhibition Hall of
Knowledge,","Hall Part 1, Dr. Annie Besant Road, Mumbai 400 018",No,No,No,19.005562,72.8176359
"BrihanMumbai Mahanagarpalika, Dhobighat
School,","Grorund Floor, Room No. 1, Jivraj Ramji Boricha Marg,
Mumbai 400 011",Yes,No,Yes,18.9879558,72.8264753
Ground Front Of Bombay Fire Fighters CHS,"Mandap No. 1, Jivraj Ramji Boricha Marg, Mumbai 400
011",No,No,Yes,18.9879558,72.8264753
"Shanti Nagar MCGM Higher Primary Marathi
School,","Passage Partition, Gadge Maharaj Chawk, Saneguruji
Marg, Mumbai 400 011",Yes,No,No,18.983165,72.82862399999999
"Bruhanmumbai Mahanagar Palika M.P.S. School
No.1, New Building,","Ground Floor Passage, J. R. Boricha Marg, Mumbai 400
011",Yes,Yes,No,18.9879832,72.8272513
"BrihanMumbai Mahanagarpalika, Arthar Road
Bal Mandir,","Ground Floor, Hall Part-A, Sane Guruji Marg, Mumbai 400
011",Yes,Yes,Yes,18.9844544,72.8298936
"BrihanMumbai Mahanagarpalika, Keshvrao
Khadye Marg School,","Ground Floor, Room No - 1, Keshavrao Khadye Marg,
Mumbai 400 011",Yes,Yes,Yes,18.980109,72.829549
"Indian Medical Association Building,","Ground Floor Hall Keshavrao Khadye Marg, Mumbai 400
034",Yes,No,No,18.979171,72.8173127
